[{"zip_code":89010,"Median":109100,"lat":37.82511,"lng":-118.08079,"mortgage":13},{"zip_code":89019,"Median":190500,"lat":35.76949,"lng":-115.51606,"mortgage":372},{"zip_code":89060,"Median":166100,"lat":36.38854,"lng":-116.05769,"mortgage":2033},{"zip_code":89061,"Median":259800,"lat":36.07143,"lng":-115.89957,"mortgage":1779},{"zip_code":89439,"Median":508300,"lat":39.52291,"lng":-119.99008,"mortgage":368},{"zip_code":90001,"Median":425200,"lat":33.97365,"lng":-118.24904,"mortgage":3195},{"zip_code":90002,"Median":411500,"lat":33.94906,"lng":-118.24679,"mortgage":3894},{"zip_code":90003,"Median":430800,"lat":33.96409,"lng":-118.27368,"mortgage":3717},{"zip_code":90004,"Median":1148400,"lat":34.07624,"lng":-118.31101,"mortgage":2554},{"zip_code":90005,"Median":964700,"lat":34.05939,"lng":-118.30909,"mortgage":1000},{"zip_code":90006,"Median":716900,"lat":34.04807,"lng":-118.29411,"mortgage":1242},{"zip_code":90007,"Median":717300,"lat":34.02819,"lng":-118.28486,"mortgage":895},{"zip_code":90008,"Median":781600,"lat":34.01037,"lng":-118.3428,"mortgage":3652},{"zip_code":90010,"Median":822100,"lat":34.06209,"lng":-118.31262,"mortgage":274},{"zip_code":90011,"Median":452100,"lat":34.00689,"lng":-118.25861,"mortgage":5181},{"zip_code":90012,"Median":633000,"lat":34.06679,"lng":-118.23878,"mortgage":605},{"zip_code":90013,"Median":664800,"lat":34.04435,"lng":-118.24,"mortgage":514},{"zip_code":90014,"Median":625000,"lat":34.04302,"lng":-118.25182,"mortgage":149},{"zip_code":90015,"Median":715000,"lat":34.03932,"lng":-118.26625,"mortgage":611},{"zip_code":90016,"Median":677500,"lat":34.02881,"lng":-118.35436,"mortgage":4626},{"zip_code":90017,"Median":697100,"lat":34.05306,"lng":-118.26447,"mortgage":491},{"zip_code":90018,"Median":704300,"lat":34.0286,"lng":-118.31737,"mortgage":3800},{"zip_code":90019,"Median":1033900,"lat":34.04861,"lng":-118.33874,"mortgage":4326},{"zip_code":90020,"Median":650300,"lat":34.06638,"lng":-118.30986,"mortgage":1108},{"zip_code":90021,"Median":1013900,"lat":34.02909,"lng":-118.23889,"mortgage":94},{"zip_code":90022,"Median":471000,"lat":34.02455,"lng":-118.15608,"mortgage":3858},{"zip_code":90023,"Median":479600,"lat":34.02264,"lng":-118.19986,"mortgage":1858},{"zip_code":90024,"Median":1231000,"lat":34.06565,"lng":-118.43521,"mortgage":3216},{"zip_code":90025,"Median":905900,"lat":34.04551,"lng":-118.44583,"mortgage":3474},{"zip_code":90026,"Median":962100,"lat":34.07883,"lng":-118.2637,"mortgage":4574},{"zip_code":90027,"Median":1287200,"lat":34.12515,"lng":-118.29049,"mortgage":2766},{"zip_code":90028,"Median":723000,"lat":34.09982,"lng":-118.3268,"mortgage":437},{"zip_code":90029,"Median":898400,"lat":34.08983,"lng":-118.29467,"mortgage":1028},{"zip_code":90031,"Median":616900,"lat":34.08122,"lng":-118.21081,"mortgage":2153},{"zip_code":90032,"Median":605400,"lat":34.0793,"lng":-118.17835,"mortgage":4682},{"zip_code":90033,"Median":538900,"lat":34.05117,"lng":-118.21165,"mortgage":1841},{"zip_code":90034,"Median":1152500,"lat":34.03059,"lng":-118.39936,"mortgage":3098},{"zip_code":90035,"Median":1494600,"lat":34.05139,"lng":-118.38577,"mortgage":2329},{"zip_code":90036,"Median":1634700,"lat":34.07013,"lng":-118.34978,"mortgage":2051},{"zip_code":90037,"Median":502000,"lat":34.00271,"lng":-118.28747,"mortgage":3286},{"zip_code":90038,"Median":945000,"lat":34.08882,"lng":-118.32671,"mortgage":784},{"zip_code":90039,"Median":972900,"lat":34.11242,"lng":-118.26153,"mortgage":3659},{"zip_code":90040,"Median":452100,"lat":33.99318,"lng":-118.1489,"mortgage":1097},{"zip_code":90041,"Median":886800,"lat":34.13749,"lng":-118.20746,"mortgage":3794},{"zip_code":90042,"Median":731600,"lat":34.11475,"lng":-118.192,"mortgage":6812},{"zip_code":90043,"Median":684500,"lat":33.98876,"lng":-118.33519,"mortgage":7185},{"zip_code":90044,"Median":461200,"lat":33.95253,"lng":-118.29194,"mortgage":6256},{"zip_code":90045,"Median":1103500,"lat":33.95302,"lng":-118.40028,"mortgage":5520},{"zip_code":90046,"Median":1290400,"lat":34.10752,"lng":-118.36575,"mortgage":4434},{"zip_code":90047,"Median":519400,"lat":33.95456,"lng":-118.30899,"mortgage":7124},{"zip_code":90048,"Median":1441200,"lat":34.07293,"lng":-118.3727,"mortgage":2184},{"zip_code":90049,"Median":2000000,"lat":34.08749,"lng":-118.48976,"mortgage":5610},{"zip_code":90056,"Median":1114900,"lat":33.99361,"lng":-118.36884,"mortgage":1419},{"zip_code":90057,"Median":576200,"lat":34.06205,"lng":-118.27704,"mortgage":375},{"zip_code":90058,"Median":419600,"lat":34.00264,"lng":-118.21452,"mortgage":182},{"zip_code":90059,"Median":415100,"lat":33.92709,"lng":-118.2491,"mortgage":3815},{"zip_code":90061,"Median":438800,"lat":33.92037,"lng":-118.27383,"mortgage":2496},{"zip_code":90062,"Median":550600,"lat":34.0035,"lng":-118.30904,"mortgage":3348},{"zip_code":90063,"Median":481100,"lat":34.0452,"lng":-118.18583,"mortgage":3196},{"zip_code":90064,"Median":1388300,"lat":34.0358,"lng":-118.42653,"mortgage":3808},{"zip_code":90065,"Median":833400,"lat":34.10867,"lng":-118.22813,"mortgage":5371},{"zip_code":90066,"Median":1282100,"lat":34.00166,"lng":-118.43104,"mortgage":5865},{"zip_code":90067,"Median":1344900,"lat":34.0565,"lng":-118.41373,"mortgage":556},{"zip_code":90068,"Median":1500800,"lat":34.12794,"lng":-118.32914,"mortgage":4003},{"zip_code":90069,"Median":890100,"lat":34.09401,"lng":-118.38154,"mortgage":3775},{"zip_code":90077,"Median":2000000,"lat":34.10536,"lng":-118.45591,"mortgage":1843},{"zip_code":90094,"Median":1132000,"lat":33.97523,"lng":-118.41837,"mortgage":1549},{"zip_code":90201,"Median":440500,"lat":33.97113,"lng":-118.1709,"mortgage":3353},{"zip_code":90210,"Median":2000000,"lat":34.10251,"lng":-118.41505,"mortgage":3996},{"zip_code":90211,"Median":2000000,"lat":34.06498,"lng":-118.38293,"mortgage":760},{"zip_code":90212,"Median":2000000,"lat":34.06208,"lng":-118.40173,"mortgage":838},{"zip_code":90220,"Median":394900,"lat":33.88058,"lng":-118.23591,"mortgage":5843},{"zip_code":90221,"Median":412600,"lat":33.88542,"lng":-118.20614,"mortgage":4972},{"zip_code":90222,"Median":420700,"lat":33.91213,"lng":-118.23721,"mortgage":3355},{"zip_code":90230,"Median":849200,"lat":33.99691,"lng":-118.39487,"mortgage":5765},{"zip_code":90232,"Median":1219100,"lat":34.01859,"lng":-118.39157,"mortgage":1809},{"zip_code":90240,"Median":646900,"lat":33.9564,"lng":-118.11803,"mortgage":3499},{"zip_code":90241,"Median":627700,"lat":33.94076,"lng":-118.1295,"mortgage":4083},{"zip_code":90242,"Median":557700,"lat":33.92216,"lng":-118.14167,"mortgage":4336},{"zip_code":90245,"Median":1244200,"lat":33.91709,"lng":-118.40161,"mortgage":2205},{"zip_code":90247,"Median":540800,"lat":33.89159,"lng":-118.29735,"mortgage":3851},{"zip_code":90248,"Median":571200,"lat":33.87689,"lng":-118.28362,"mortgage":1519},{"zip_code":90249,"Median":584000,"lat":33.90152,"lng":-118.31707,"mortgage":3441},{"zip_code":90250,"Median":661400,"lat":33.91383,"lng":-118.34996,"mortgage":7322},{"zip_code":90254,"Median":1674500,"lat":33.86532,"lng":-118.39616,"mortgage":3271},{"zip_code":90255,"Median":455000,"lat":33.97697,"lng":-118.21725,"mortgage":4144},{"zip_code":90260,"Median":597300,"lat":33.88768,"lng":-118.34952,"mortgage":3412},{"zip_code":90262,"Median":449600,"lat":33.92384,"lng":-118.20133,"mortgage":5367},{"zip_code":90265,"Median":2000000,"lat":34.07282,"lng":-118.84995,"mortgage":3215},{"zip_code":90266,"Median":2000000,"lat":33.88968,"lng":-118.39705,"mortgage":6419},{"zip_code":90270,"Median":481800,"lat":33.98856,"lng":-118.18774,"mortgage":1119},{"zip_code":90272,"Median":2000000,"lat":34.08066,"lng":-118.54459,"mortgage":4388},{"zip_code":90274,"Median":1757700,"lat":33.77732,"lng":-118.3684,"mortgage":5148},{"zip_code":90275,"Median":1247000,"lat":33.7555,"lng":-118.36338,"mortgage":8058},{"zip_code":90277,"Median":1143800,"lat":33.83099,"lng":-118.38441,"mortgage":5368},{"zip_code":90278,"Median":992600,"lat":33.87362,"lng":-118.37028,"mortgage":7339},{"zip_code":90280,"Median":470200,"lat":33.94453,"lng":-118.19256,"mortgage":7674},{"zip_code":90290,"Median":1184900,"lat":34.09725,"lng":-118.6125,"mortgage":1137},{"zip_code":90291,"Median":1899800,"lat":33.99447,"lng":-118.46315,"mortgage":3487},{"zip_code":90292,"Median":1076900,"lat":33.97865,"lng":-118.44707,"mortgage":3103},{"zip_code":90293,"Median":899000,"lat":33.95071,"lng":-118.43745,"mortgage":2293},{"zip_code":90301,"Median":547900,"lat":33.95647,"lng":-118.35863,"mortgage":2348},{"zip_code":90302,"Median":590000,"lat":33.97472,"lng":-118.35565,"mortgage":2457},{"zip_code":90303,"Median":606100,"lat":33.93601,"lng":-118.33112,"mortgage":1961},{"zip_code":90304,"Median":586600,"lat":33.93736,"lng":-118.35879,"mortgage":1491},{"zip_code":90305,"Median":646500,"lat":33.9583,"lng":-118.33113,"mortgage":3023},{"zip_code":90401,"Median":1393800,"lat":34.01584,"lng":-118.49251,"mortgage":239},{"zip_code":90402,"Median":2000000,"lat":34.03598,"lng":-118.50391,"mortgage":2178},{"zip_code":90403,"Median":1523400,"lat":34.03164,"lng":-118.48975,"mortgage":2163},{"zip_code":90404,"Median":922900,"lat":34.02665,"lng":-118.47381,"mortgage":1609},{"zip_code":90405,"Median":1430800,"lat":34.01208,"lng":-118.4679,"mortgage":3011},{"zip_code":90501,"Median":724900,"lat":33.8336,"lng":-118.31419,"mortgage":4334},{"zip_code":90502,"Median":520700,"lat":33.83497,"lng":-118.29291,"mortgage":2981},{"zip_code":90503,"Median":861000,"lat":33.84089,"lng":-118.3538,"mortgage":5734},{"zip_code":90504,"Median":712300,"lat":33.86693,"lng":-118.33135,"mortgage":4886},{"zip_code":90505,"Median":916100,"lat":33.80904,"lng":-118.34775,"mortgage":5209},{"zip_code":90601,"Median":626500,"lat":34.0078,"lng":-118.03287,"mortgage":4603},{"zip_code":90602,"Median":601600,"lat":33.97317,"lng":-118.02341,"mortgage":2177},{"zip_code":90603,"Median":649600,"lat":33.94487,"lng":-117.99239,"mortgage":3672},{"zip_code":90604,"Median":591400,"lat":33.93012,"lng":-118.01226,"mortgage":5731},{"zip_code":90605,"Median":556000,"lat":33.95209,"lng":-118.02085,"mortgage":5284},{"zip_code":90606,"Median":509600,"lat":33.97742,"lng":-118.0661,"mortgage":4188},{"zip_code":90620,"Median":622700,"lat":33.84616,"lng":-118.01176,"mortgage":6824},{"zip_code":90621,"Median":643200,"lat":33.87396,"lng":-117.99346,"mortgage":2815},{"zip_code":90623,"Median":739200,"lat":33.85038,"lng":-118.04088,"mortgage":2036},{"zip_code":90630,"Median":700100,"lat":33.81814,"lng":-118.03814,"mortgage":7583},{"zip_code":90631,"Median":628900,"lat":33.94266,"lng":-117.95126,"mortgage":9507},{"zip_code":90638,"Median":630100,"lat":33.90236,"lng":-118.00907,"mortgage":8179},{"zip_code":90640,"Median":558600,"lat":34.01506,"lng":-118.111,"mortgage":5175},{"zip_code":90650,"Median":487800,"lat":33.90703,"lng":-118.08249,"mortgage":12226},{"zip_code":90660,"Median":490300,"lat":33.98868,"lng":-118.09111,"mortgage":7865},{"zip_code":90670,"Median":492100,"lat":33.93279,"lng":-118.0626,"mortgage":2499},{"zip_code":90680,"Median":472800,"lat":33.80115,"lng":-117.99532,"mortgage":2847},{"zip_code":90701,"Median":635000,"lat":33.8676,"lng":-118.08055,"mortgage":1584},{"zip_code":90703,"Median":762700,"lat":33.86797,"lng":-118.06874,"mortgage":7266},{"zip_code":90704,"Median":863800,"lat":33.3765,"lng":-118.43678,"mortgage":301},{"zip_code":90706,"Median":535300,"lat":33.88802,"lng":-118.12709,"mortgage":6226},{"zip_code":90710,"Median":523400,"lat":33.79806,"lng":-118.29918,"mortgage":3111},{"zip_code":90712,"Median":622800,"lat":33.849,"lng":-118.14677,"mortgage":5548},{"zip_code":90713,"Median":638600,"lat":33.84797,"lng":-118.11268,"mortgage":5708},{"zip_code":90715,"Median":555400,"lat":33.84037,"lng":-118.07887,"mortgage":2632},{"zip_code":90716,"Median":442000,"lat":33.8305,"lng":-118.07295,"mortgage":1018},{"zip_code":90717,"Median":649400,"lat":33.79345,"lng":-118.31706,"mortgage":2300},{"zip_code":90720,"Median":1004200,"lat":33.79573,"lng":-118.06342,"mortgage":3695},{"zip_code":90723,"Median":411900,"lat":33.89768,"lng":-118.16508,"mortgage":3714},{"zip_code":90731,"Median":657700,"lat":33.7334,"lng":-118.27398,"mortgage":5486},{"zip_code":90732,"Median":657400,"lat":33.74319,"lng":-118.31048,"mortgage":4387},{"zip_code":90740,"Median":442000,"lat":33.75461,"lng":-118.07129,"mortgage":3345},{"zip_code":90742,"Median":1140400,"lat":33.71834,"lng":-118.07174,"mortgage":103},{"zip_code":90743,"Median":2000000,"lat":33.72963,"lng":-118.08594,"mortgage":60},{"zip_code":90744,"Median":471000,"lat":33.77821,"lng":-118.26087,"mortgage":3745},{"zip_code":90745,"Median":516000,"lat":33.82117,"lng":-118.26458,"mortgage":7219},{"zip_code":90746,"Median":585600,"lat":33.85855,"lng":-118.25518,"mortgage":4988},{"zip_code":90755,"Median":553100,"lat":33.80274,"lng":-118.16747,"mortgage":1661},{"zip_code":90802,"Median":460300,"lat":33.75035,"lng":-118.21143,"mortgage":3445},{"zip_code":90803,"Median":943000,"lat":33.76162,"lng":-118.12178,"mortgage":5204},{"zip_code":90804,"Median":541000,"lat":33.78223,"lng":-118.14917,"mortgage":2422},{"zip_code":90805,"Median":469100,"lat":33.86494,"lng":-118.18051,"mortgage":8530},{"zip_code":90806,"Median":568400,"lat":33.80819,"lng":-118.17797,"mortgage":3644},{"zip_code":90807,"Median":661100,"lat":33.83098,"lng":-118.18113,"mortgage":5237},{"zip_code":90808,"Median":708300,"lat":33.82406,"lng":-118.11236,"mortgage":8272},{"zip_code":90810,"Median":464500,"lat":33.81912,"lng":-118.22096,"mortgage":3729},{"zip_code":90813,"Median":430500,"lat":33.78237,"lng":-118.19656,"mortgage":1746},{"zip_code":90814,"Median":738900,"lat":33.7716,"lng":-118.14351,"mortgage":2229},{"zip_code":90815,"Median":701600,"lat":33.79572,"lng":-118.11592,"mortgage":7219},{"zip_code":91001,"Median":887100,"lat":34.19522,"lng":-118.13866,"mortgage":7252},{"zip_code":91006,"Median":1074000,"lat":34.1352,"lng":-118.02667,"mortgage":4284},{"zip_code":91007,"Median":1056600,"lat":34.12842,"lng":-118.04818,"mortgage":3503},{"zip_code":91008,"Median":1414100,"lat":34.15363,"lng":-117.96862,"mortgage":157},{"zip_code":91010,"Median":560900,"lat":34.14114,"lng":-117.95918,"mortgage":3841},{"zip_code":91011,"Median":1671000,"lat":34.21757,"lng":-118.20346,"mortgage":4036},{"zip_code":91016,"Median":707400,"lat":34.15246,"lng":-118.00065,"mortgage":4939},{"zip_code":91020,"Median":719600,"lat":34.21144,"lng":-118.23065,"mortgage":780},{"zip_code":91024,"Median":1048300,"lat":34.17177,"lng":-118.04654,"mortgage":1962},{"zip_code":91030,"Median":1174400,"lat":34.11029,"lng":-118.15748,"mortgage":3543},{"zip_code":91040,"Median":638100,"lat":34.25861,"lng":-118.33468,"mortgage":4183},{"zip_code":91042,"Median":617400,"lat":34.30687,"lng":-118.25701,"mortgage":3870},{"zip_code":91101,"Median":615200,"lat":34.14671,"lng":-118.13895,"mortgage":1139},{"zip_code":91103,"Median":780200,"lat":34.16738,"lng":-118.16446,"mortgage":2847},{"zip_code":91104,"Median":836500,"lat":34.16766,"lng":-118.12341,"mortgage":5053},{"zip_code":91105,"Median":1306200,"lat":34.14045,"lng":-118.16716,"mortgage":2010},{"zip_code":91106,"Median":811200,"lat":34.13861,"lng":-118.12825,"mortgage":2444},{"zip_code":91107,"Median":913700,"lat":34.15919,"lng":-118.08688,"mortgage":4880},{"zip_code":91108,"Median":2000000,"lat":34.12232,"lng":-118.11363,"mortgage":2020},{"zip_code":91201,"Median":916000,"lat":34.17041,"lng":-118.28902,"mortgage":1745},{"zip_code":91202,"Median":876700,"lat":34.18221,"lng":-118.26761,"mortgage":2598},{"zip_code":91203,"Median":592600,"lat":34.15287,"lng":-118.26355,"mortgage":772},{"zip_code":91204,"Median":561800,"lat":34.13554,"lng":-118.26093,"mortgage":362},{"zip_code":91205,"Median":677200,"lat":34.13679,"lng":-118.24339,"mortgage":1278},{"zip_code":91206,"Median":910500,"lat":34.16076,"lng":-118.21311,"mortgage":3360},{"zip_code":91207,"Median":1092700,"lat":34.16872,"lng":-118.24477,"mortgage":1618},{"zip_code":91208,"Median":1054700,"lat":34.19333,"lng":-118.23839,"mortgage":2789},{"zip_code":91214,"Median":851700,"lat":34.23759,"lng":-118.24778,"mortgage":5808},{"zip_code":91301,"Median":871000,"lat":34.12314,"lng":-118.75685,"mortgage":5599},{"zip_code":91302,"Median":1341400,"lat":34.12295,"lng":-118.67193,"mortgage":4941},{"zip_code":91303,"Median":536400,"lat":34.19784,"lng":-118.6017,"mortgage":1338},{"zip_code":91304,"Median":677700,"lat":34.22472,"lng":-118.63261,"mortgage":6334},{"zip_code":91306,"Median":592400,"lat":34.20926,"lng":-118.5755,"mortgage":5812},{"zip_code":91307,"Median":714600,"lat":34.20177,"lng":-118.66226,"mortgage":5304},{"zip_code":91311,"Median":679000,"lat":34.29011,"lng":-118.60776,"mortgage":6418},{"zip_code":91316,"Median":724500,"lat":34.15836,"lng":-118.51658,"mortgage":4304},{"zip_code":91320,"Median":755800,"lat":34.17339,"lng":-118.94795,"mortgage":8220},{"zip_code":91321,"Median":513500,"lat":34.36479,"lng":-118.4922,"mortgage":4622},{"zip_code":91324,"Median":680200,"lat":34.23855,"lng":-118.55015,"mortgage":3482},{"zip_code":91325,"Median":720900,"lat":34.23636,"lng":-118.51777,"mortgage":4160},{"zip_code":91326,"Median":846700,"lat":34.28022,"lng":-118.5566,"mortgage":7022},{"zip_code":91331,"Median":487600,"lat":34.25602,"lng":-118.41939,"mortgage":10521},{"zip_code":91335,"Median":580500,"lat":34.20107,"lng":-118.5407,"mortgage":8665},{"zip_code":91340,"Median":515000,"lat":34.28668,"lng":-118.43479,"mortgage":3816},{"zip_code":91342,"Median":520900,"lat":34.31778,"lng":-118.39207,"mortgage":12043},{"zip_code":91343,"Median":608500,"lat":34.23837,"lng":-118.48076,"mortgage":6824},{"zip_code":91344,"Median":690300,"lat":34.28991,"lng":-118.5047,"mortgage":9357},{"zip_code":91345,"Median":558000,"lat":34.26591,"lng":-118.45948,"mortgage":2808},{"zip_code":91350,"Median":605800,"lat":34.43028,"lng":-118.50283,"mortgage":8647},{"zip_code":91351,"Median":471900,"lat":34.43269,"lng":-118.46276,"mortgage":5688},{"zip_code":91352,"Median":584100,"lat":34.23183,"lng":-118.36596,"mortgage":4343},{"zip_code":91354,"Median":648600,"lat":34.46039,"lng":-118.5528,"mortgage":7244},{"zip_code":91355,"Median":600200,"lat":34.42379,"lng":-118.58437,"mortgage":5820},{"zip_code":91356,"Median":1023000,"lat":34.15504,"lng":-118.54757,"mortgage":5083},{"zip_code":91360,"Median":735100,"lat":34.21475,"lng":-118.87735,"mortgage":7589},{"zip_code":91361,"Median":1042900,"lat":34.14016,"lng":-118.88398,"mortgage":3790},{"zip_code":91362,"Median":878300,"lat":34.19244,"lng":-118.81949,"mortgage":7295},{"zip_code":91364,"Median":949000,"lat":34.1548,"lng":-118.59492,"mortgage":5219},{"zip_code":91367,"Median":786200,"lat":34.17708,"lng":-118.61518,"mortgage":6654},{"zip_code":91377,"Median":823300,"lat":34.1847,"lng":-118.76652,"mortgage":2723},{"zip_code":91381,"Median":851300,"lat":34.3753,"lng":-118.60744,"mortgage":3888},{"zip_code":91384,"Median":579800,"lat":34.51604,"lng":-118.67289,"mortgage":4887},{"zip_code":91387,"Median":599500,"lat":34.39708,"lng":-118.3707,"mortgage":6659},{"zip_code":91390,"Median":647600,"lat":34.53159,"lng":-118.40668,"mortgage":3804},{"zip_code":91401,"Median":798900,"lat":34.17801,"lng":-118.43183,"mortgage":3620},{"zip_code":91402,"Median":483700,"lat":34.22413,"lng":-118.4448,"mortgage":5281},{"zip_code":91403,"Median":1129100,"lat":34.14716,"lng":-118.46311,"mortgage":4221},{"zip_code":91405,"Median":581600,"lat":34.20153,"lng":-118.44863,"mortgage":3802},{"zip_code":91406,"Median":608600,"lat":34.19791,"lng":-118.48987,"mortgage":5246},{"zip_code":91411,"Median":759300,"lat":34.17853,"lng":-118.45956,"mortgage":1859},{"zip_code":91423,"Median":1066600,"lat":34.14924,"lng":-118.43239,"mortgage":4282},{"zip_code":91436,"Median":1545300,"lat":34.15219,"lng":-118.49053,"mortgage":3233},{"zip_code":91501,"Median":827400,"lat":34.19469,"lng":-118.29431,"mortgage":2095},{"zip_code":91502,"Median":761400,"lat":34.17684,"lng":-118.30936,"mortgage":492},{"zip_code":91504,"Median":819100,"lat":34.21349,"lng":-118.31478,"mortgage":3982},{"zip_code":91505,"Median":812500,"lat":34.17583,"lng":-118.34692,"mortgage":4422},{"zip_code":91506,"Median":850600,"lat":34.17134,"lng":-118.32384,"mortgage":3393},{"zip_code":91601,"Median":744500,"lat":34.16827,"lng":-118.37222,"mortgage":2278},{"zip_code":91602,"Median":873700,"lat":34.15078,"lng":-118.36633,"mortgage":2429},{"zip_code":91604,"Median":1263200,"lat":34.13985,"lng":-118.39435,"mortgage":5096},{"zip_code":91605,"Median":605900,"lat":34.20699,"lng":-118.40067,"mortgage":4279},{"zip_code":91606,"Median":648100,"lat":34.18655,"lng":-118.38867,"mortgage":3910},{"zip_code":91607,"Median":864100,"lat":34.16633,"lng":-118.39982,"mortgage":2955},{"zip_code":91701,"Median":577200,"lat":34.13784,"lng":-117.60028,"mortgage":7216},{"zip_code":91702,"Median":474100,"lat":34.24129,"lng":-117.82614,"mortgage":6517},{"zip_code":91706,"Median":465900,"lat":34.09627,"lng":-117.96855,"mortgage":7414},{"zip_code":91708,"Median":488900,"lat":33.95141,"lng":-117.64506,"mortgage":1495},{"zip_code":91709,"Median":676800,"lat":33.95105,"lng":-117.72549,"mortgage":12574},{"zip_code":91710,"Median":512600,"lat":34.00507,"lng":-117.68249,"mortgage":10950},{"zip_code":91711,"Median":714400,"lat":34.12836,"lng":-117.71523,"mortgage":5834},{"zip_code":91722,"Median":513600,"lat":34.09731,"lng":-117.90612,"mortgage":5180},{"zip_code":91723,"Median":579100,"lat":34.08495,"lng":-117.88652,"mortgage":1887},{"zip_code":91724,"Median":613400,"lat":34.0805,"lng":-117.85515,"mortgage":4418},{"zip_code":91730,"Median":452400,"lat":34.10023,"lng":-117.5811,"mortgage":8654},{"zip_code":91731,"Median":497100,"lat":34.07914,"lng":-118.04047,"mortgage":1542},{"zip_code":91732,"Median":517800,"lat":34.07239,"lng":-118.01455,"mortgage":3909},{"zip_code":91733,"Median":486400,"lat":34.0454,"lng":-118.05314,"mortgage":2657},{"zip_code":91737,"Median":659500,"lat":34.15523,"lng":-117.57808,"mortgage":4215},{"zip_code":91739,"Median":648400,"lat":34.1622,"lng":-117.51558,"mortgage":6673},{"zip_code":91740,"Median":590200,"lat":34.11884,"lng":-117.8534,"mortgage":3809},{"zip_code":91741,"Median":757100,"lat":34.1647,"lng":-117.83197,"mortgage":4394},{"zip_code":91744,"Median":463200,"lat":34.02914,"lng":-117.93735,"mortgage":8069},{"zip_code":91745,"Median":647300,"lat":33.99926,"lng":-117.97225,"mortgage":7631},{"zip_code":91746,"Median":488400,"lat":34.04397,"lng":-117.98785,"mortgage":3748},{"zip_code":91748,"Median":663600,"lat":33.9769,"lng":-117.89924,"mortgage":5523},{"zip_code":91750,"Median":630400,"lat":34.14927,"lng":-117.76647,"mortgage":5771},{"zip_code":91752,"Median":521900,"lat":33.99575,"lng":-117.53399,"mortgage":4320},{"zip_code":91754,"Median":687700,"lat":34.051,"lng":-118.14451,"mortgage":3279},{"zip_code":91755,"Median":639900,"lat":34.04832,"lng":-118.11496,"mortgage":2105},{"zip_code":91759,"Median":380000,"lat":34.2541,"lng":-117.69194,"mortgage":57},{"zip_code":91761,"Median":452900,"lat":34.03541,"lng":-117.5915,"mortgage":8557},{"zip_code":91762,"Median":437700,"lat":34.02764,"lng":-117.64308,"mortgage":6935},{"zip_code":91763,"Median":423700,"lat":34.07208,"lng":-117.69828,"mortgage":3571},{"zip_code":91764,"Median":415600,"lat":34.07533,"lng":-117.60164,"mortgage":5410},{"zip_code":91765,"Median":709800,"lat":33.98725,"lng":-117.81473,"mortgage":8001},{"zip_code":91766,"Median":452700,"lat":34.04192,"lng":-117.75698,"mortgage":6733},{"zip_code":91767,"Median":449500,"lat":34.08143,"lng":-117.73868,"mortgage":5584},{"zip_code":91768,"Median":427500,"lat":34.06358,"lng":-117.78941,"mortgage":3269},{"zip_code":91770,"Median":601300,"lat":34.06395,"lng":-118.08361,"mortgage":4602},{"zip_code":91773,"Median":625400,"lat":34.1072,"lng":-117.80928,"mortgage":5574},{"zip_code":91775,"Median":861400,"lat":34.11454,"lng":-118.08946,"mortgage":3212},{"zip_code":91776,"Median":698900,"lat":34.08987,"lng":-118.09519,"mortgage":2720},{"zip_code":91780,"Median":766200,"lat":34.10152,"lng":-118.05584,"mortgage":4426},{"zip_code":91784,"Median":666800,"lat":34.14103,"lng":-117.65831,"mortgage":5740},{"zip_code":91786,"Median":483400,"lat":34.10525,"lng":-117.66206,"mortgage":5236},{"zip_code":91789,"Median":790500,"lat":34.01858,"lng":-117.85408,"mortgage":6515},{"zip_code":91790,"Median":594000,"lat":34.06722,"lng":-117.93788,"mortgage":5492},{"zip_code":91791,"Median":647400,"lat":34.06134,"lng":-117.89425,"mortgage":4528},{"zip_code":91792,"Median":557100,"lat":34.02586,"lng":-117.89989,"mortgage":3729},{"zip_code":91801,"Median":662100,"lat":34.09093,"lng":-118.12776,"mortgage":4181},{"zip_code":91803,"Median":643900,"lat":34.0749,"lng":-118.14624,"mortgage":2872},{"zip_code":91901,"Median":644200,"lat":32.81467,"lng":-116.71929,"mortgage":3544},{"zip_code":91902,"Median":732000,"lat":32.67479,"lng":-117.00475,"mortgage":3199},{"zip_code":91905,"Median":280400,"lat":32.67773,"lng":-116.30734,"mortgage":249},{"zip_code":91906,"Median":282800,"lat":32.66241,"lng":-116.47255,"mortgage":571},{"zip_code":91910,"Median":549100,"lat":32.63653,"lng":-117.06301,"mortgage":9145},{"zip_code":91911,"Median":485300,"lat":32.60686,"lng":-117.04984,"mortgage":8149},{"zip_code":91913,"Median":578600,"lat":32.62174,"lng":-116.98609,"mortgage":8705},{"zip_code":91914,"Median":739300,"lat":32.66604,"lng":-116.95426,"mortgage":3044},{"zip_code":91915,"Median":604600,"lat":32.62266,"lng":-116.95013,"mortgage":6043},{"zip_code":91916,"Median":479600,"lat":32.91103,"lng":-116.63201,"mortgage":353},{"zip_code":91917,"Median":433300,"lat":32.6267,"lng":-116.71894,"mortgage":112},{"zip_code":91932,"Median":639200,"lat":32.56923,"lng":-117.11798,"mortgage":1868},{"zip_code":91934,"Median":265500,"lat":32.66488,"lng":-116.16828,"mortgage":84},{"zip_code":91935,"Median":681300,"lat":32.70214,"lng":-116.78721,"mortgage":1875},{"zip_code":91941,"Median":684900,"lat":32.75964,"lng":-116.99253,"mortgage":6093},{"zip_code":91942,"Median":578600,"lat":32.77728,"lng":-117.02129,"mortgage":4911},{"zip_code":91945,"Median":478800,"lat":32.73315,"lng":-117.03402,"mortgage":3819},{"zip_code":91948,"Median":240300,"lat":32.87509,"lng":-116.47076,"mortgage":31},{"zip_code":91950,"Median":450700,"lat":32.66952,"lng":-117.09313,"mortgage":4044},{"zip_code":91962,"Median":433300,"lat":32.79248,"lng":-116.48044,"mortgage":503},{"zip_code":91963,"Median":350000,"lat":32.64798,"lng":-116.5964,"mortgage":49},{"zip_code":91977,"Median":493000,"lat":32.72387,"lng":-116.99631,"mortgage":9078},{"zip_code":91978,"Median":454100,"lat":32.71209,"lng":-116.94103,"mortgage":1443},{"zip_code":92003,"Median":720300,"lat":33.28701,"lng":-117.19977,"mortgage":752},{"zip_code":92004,"Median":320600,"lat":33.18481,"lng":-116.15688,"mortgage":370},{"zip_code":92007,"Median":1304000,"lat":33.02216,"lng":-117.27389,"mortgage":1812},{"zip_code":92008,"Median":881300,"lat":33.14564,"lng":-117.31691,"mortgage":3576},{"zip_code":92009,"Median":964200,"lat":33.09535,"lng":-117.24574,"mortgage":8934},{"zip_code":92010,"Median":776000,"lat":33.15676,"lng":-117.28423,"mortgage":2787},{"zip_code":92011,"Median":924700,"lat":33.10698,"lng":-117.29507,"mortgage":4088},{"zip_code":92014,"Median":1827000,"lat":32.96797,"lng":-117.24879,"mortgage":2370},{"zip_code":92019,"Median":576700,"lat":32.77886,"lng":-116.87142,"mortgage":7453},{"zip_code":92020,"Median":576200,"lat":32.79557,"lng":-116.9697,"mortgage":6186},{"zip_code":92021,"Median":469100,"lat":32.83514,"lng":-116.87462,"mortgage":7476},{"zip_code":92024,"Median":1063400,"lat":33.05716,"lng":-117.25651,"mortgage":8184},{"zip_code":92025,"Median":558600,"lat":33.08492,"lng":-117.02967,"mortgage":5342},{"zip_code":92026,"Median":539900,"lat":33.2111,"lng":-117.11157,"mortgage":8051},{"zip_code":92027,"Median":493300,"lat":33.13263,"lng":-116.98335,"mortgage":7180},{"zip_code":92028,"Median":627900,"lat":33.38613,"lng":-117.22658,"mortgage":8226},{"zip_code":92029,"Median":690900,"lat":33.08555,"lng":-117.12885,"mortgage":3762},{"zip_code":92036,"Median":425900,"lat":33.01137,"lng":-116.37672,"mortgage":745},{"zip_code":92037,"Median":1614900,"lat":32.85257,"lng":-117.25104,"mortgage":6107},{"zip_code":92040,"Median":540200,"lat":32.90665,"lng":-116.88875,"mortgage":7161},{"zip_code":92054,"Median":648800,"lat":33.19377,"lng":-117.35508,"mortgage":3879},{"zip_code":92056,"Median":583700,"lat":33.20197,"lng":-117.28939,"mortgage":8816},{"zip_code":92057,"Median":530600,"lat":33.25326,"lng":-117.28704,"mortgage":9378},{"zip_code":92058,"Median":510400,"lat":33.28379,"lng":-117.34182,"mortgage":2561},{"zip_code":92059,"Median":234200,"lat":33.38277,"lng":-117.05193,"mortgage":153},{"zip_code":92061,"Median":611500,"lat":33.30036,"lng":-116.93048,"mortgage":247},{"zip_code":92064,"Median":767500,"lat":32.98038,"lng":-117.01746,"mortgage":9138},{"zip_code":92065,"Median":593100,"lat":33.04736,"lng":-116.84386,"mortgage":7078},{"zip_code":92066,"Median":364900,"lat":33.21541,"lng":-116.53583,"mortgage":77},{"zip_code":92067,"Median":2000000,"lat":33.02087,"lng":-117.19209,"mortgage":1530},{"zip_code":92069,"Median":569500,"lat":33.17536,"lng":-117.15761,"mortgage":6181},{"zip_code":92070,"Median":335700,"lat":33.18513,"lng":-116.74071,"mortgage":73},{"zip_code":92071,"Median":524100,"lat":32.85045,"lng":-116.99479,"mortgage":10449},{"zip_code":92075,"Median":1442900,"lat":32.99735,"lng":-117.25875,"mortgage":1956},{"zip_code":92078,"Median":665300,"lat":33.11834,"lng":-117.18554,"mortgage":9032},{"zip_code":92081,"Median":599400,"lat":33.16451,"lng":-117.24056,"mortgage":3953},{"zip_code":92082,"Median":620700,"lat":33.2518,"lng":-117.00284,"mortgage":3374},{"zip_code":92083,"Median":467600,"lat":33.19808,"lng":-117.24844,"mortgage":3813},{"zip_code":92084,"Median":600600,"lat":33.22454,"lng":-117.20334,"mortgage":6396},{"zip_code":92086,"Median":265800,"lat":33.29718,"lng":-116.64176,"mortgage":245},{"zip_code":92091,"Median":1359400,"lat":33.03432,"lng":-117.19704,"mortgage":320},{"zip_code":92101,"Median":626000,"lat":32.7162,"lng":-117.18589,"mortgage":5076},{"zip_code":92102,"Median":477100,"lat":32.71595,"lng":-117.11749,"mortgage":3579},{"zip_code":92103,"Median":835300,"lat":32.74782,"lng":-117.16738,"mortgage":4154},{"zip_code":92104,"Median":679300,"lat":32.74191,"lng":-117.12781,"mortgage":4628},{"zip_code":92105,"Median":459200,"lat":32.73756,"lng":-117.09193,"mortgage":5045},{"zip_code":92106,"Median":1070000,"lat":32.71334,"lng":-117.23617,"mortgage":3086},{"zip_code":92107,"Median":982300,"lat":32.7402,"lng":-117.24357,"mortgage":3270},{"zip_code":92108,"Median":469300,"lat":32.77423,"lng":-117.14097,"mortgage":2982},{"zip_code":92109,"Median":962000,"lat":32.78699,"lng":-117.23273,"mortgage":4654},{"zip_code":92110,"Median":688800,"lat":32.76533,"lng":-117.19965,"mortgage":2841},{"zip_code":92111,"Median":604600,"lat":32.8065,"lng":-117.16897,"mortgage":6091},{"zip_code":92113,"Median":406600,"lat":32.69591,"lng":-117.12012,"mortgage":2737},{"zip_code":92114,"Median":461500,"lat":32.70778,"lng":-117.05529,"mortgage":9214},{"zip_code":92115,"Median":580800,"lat":32.76154,"lng":-117.07187,"mortgage":5732},{"zip_code":92116,"Median":690400,"lat":32.76484,"lng":-117.12303,"mortgage":4122},{"zip_code":92117,"Median":690000,"lat":32.82493,"lng":-117.19972,"mortgage":7275},{"zip_code":92118,"Median":1656900,"lat":32.67466,"lng":-117.16915,"mortgage":2277},{"zip_code":92119,"Median":632500,"lat":32.80896,"lng":-117.03232,"mortgage":4748},{"zip_code":92120,"Median":654100,"lat":32.79526,"lng":-117.07317,"mortgage":5319},{"zip_code":92121,"Median":821100,"lat":32.8973,"lng":-117.20231,"mortgage":721},{"zip_code":92122,"Median":780000,"lat":32.85681,"lng":-117.21017,"mortgage":3957},{"zip_code":92123,"Median":600900,"lat":32.80958,"lng":-117.13419,"mortgage":3658},{"zip_code":92124,"Median":704400,"lat":32.82823,"lng":-117.08528,"mortgage":3732},{"zip_code":92126,"Median":599500,"lat":32.912,"lng":-117.14344,"mortgage":9918},{"zip_code":92127,"Median":914200,"lat":33.01913,"lng":-117.12339,"mortgage":9123},{"zip_code":92128,"Median":681900,"lat":32.99687,"lng":-117.07308,"mortgage":9510},{"zip_code":92129,"Median":815300,"lat":32.96354,"lng":-117.12622,"mortgage":9399},{"zip_code":92130,"Median":1189300,"lat":32.94763,"lng":-117.20586,"mortgage":10373},{"zip_code":92131,"Median":885500,"lat":32.89604,"lng":-117.05737,"mortgage":7623},{"zip_code":92139,"Median":466100,"lat":32.68006,"lng":-117.04889,"mortgage":4158},{"zip_code":92154,"Median":477900,"lat":32.578,"lng":-116.96621,"mortgage":10125},{"zip_code":92173,"Median":388700,"lat":32.55552,"lng":-117.05114,"mortgage":1755},{"zip_code":92201,"Median":272400,"lat":33.70804,"lng":-116.23502,"mortgage":9224},{"zip_code":92203,"Median":368900,"lat":33.75159,"lng":-116.24139,"mortgage":6889},{"zip_code":92210,"Median":750700,"lat":33.70357,"lng":-116.33953,"mortgage":819},{"zip_code":92211,"Median":400000,"lat":33.76593,"lng":-116.33241,"mortgage":4874},{"zip_code":92220,"Median":259600,"lat":33.93992,"lng":-116.83935,"mortgage":3747},{"zip_code":92223,"Median":354000,"lat":33.9382,"lng":-116.98137,"mortgage":11019},{"zip_code":92225,"Median":165000,"lat":33.71642,"lng":-114.65606,"mortgage":1689},{"zip_code":92227,"Median":226700,"lat":32.98677,"lng":-115.3341,"mortgage":3036},{"zip_code":92230,"Median":211900,"lat":33.9088,"lng":-116.76879,"mortgage":228},{"zip_code":92231,"Median":233300,"lat":32.68751,"lng":-115.56433,"mortgage":3359},{"zip_code":92233,"Median":158400,"lat":33.14736,"lng":-115.50686,"mortgage":407},{"zip_code":92234,"Median":325200,"lat":33.81386,"lng":-116.46663,"mortgage":7299},{"zip_code":92236,"Median":262300,"lat":33.70276,"lng":-116.07254,"mortgage":7165},{"zip_code":92239,"Median":112500,"lat":33.87424,"lng":-115.24396,"mortgage":11},{"zip_code":92240,"Median":230300,"lat":33.95291,"lng":-116.5194,"mortgage":4384},{"zip_code":92241,"Median":92600,"lat":33.84634,"lng":-116.28342,"mortgage":752},{"zip_code":92242,"Median":101600,"lat":34.19019,"lng":-114.30755,"mortgage":104},{"zip_code":92243,"Median":216700,"lat":32.77285,"lng":-115.60065,"mortgage":3510},{"zip_code":92249,"Median":220200,"lat":32.72606,"lng":-115.48218,"mortgage":788},{"zip_code":92250,"Median":234300,"lat":32.79188,"lng":-115.23454,"mortgage":529},{"zip_code":92251,"Median":271600,"lat":32.87129,"lng":-115.71804,"mortgage":2999},{"zip_code":92252,"Median":217900,"lat":34.14801,"lng":-116.28422,"mortgage":1269},{"zip_code":92253,"Median":453600,"lat":33.65562,"lng":-116.28785,"mortgage":7531},{"zip_code":92254,"Median":160400,"lat":33.54371,"lng":-115.99995,"mortgage":713},{"zip_code":92256,"Median":183300,"lat":34.07207,"lng":-116.61761,"mortgage":516},{"zip_code":92257,"Median":57800,"lat":33.33976,"lng":-115.52814,"mortgage":72},{"zip_code":92258,"Median":69100,"lat":33.91791,"lng":-116.56002,"mortgage":12},{"zip_code":92259,"Median":158000,"lat":32.73478,"lng":-115.94632,"mortgage":13},{"zip_code":92260,"Median":363400,"lat":33.69841,"lng":-116.40519,"mortgage":4990},{"zip_code":92262,"Median":447800,"lat":33.86287,"lng":-116.55736,"mortgage":4560},{"zip_code":92264,"Median":386800,"lat":33.73575,"lng":-116.50544,"mortgage":3536},{"zip_code":92268,"Median":427900,"lat":34.16146,"lng":-116.55002,"mortgage":82},{"zip_code":92270,"Median":570400,"lat":33.76399,"lng":-116.42705,"mortgage":3581},{"zip_code":92273,"Median":158800,"lat":32.80798,"lng":-115.69592,"mortgage":125},{"zip_code":92274,"Median":113200,"lat":33.47031,"lng":-116.11387,"mortgage":1238},{"zip_code":92275,"Median":145600,"lat":33.20783,"lng":-115.88084,"mortgage":266},{"zip_code":92276,"Median":206000,"lat":33.83234,"lng":-116.38648,"mortgage":1084},{"zip_code":92277,"Median":158900,"lat":34.11248,"lng":-115.68752,"mortgage":1994},{"zip_code":92281,"Median":160600,"lat":33.05033,"lng":-115.61264,"mortgage":152},{"zip_code":92282,"Median":225000,"lat":33.96253,"lng":-116.65829,"mortgage":224},{"zip_code":92284,"Median":225100,"lat":34.16013,"lng":-116.42474,"mortgage":4560},{"zip_code":92285,"Median":157100,"lat":34.33762,"lng":-116.51364,"mortgage":314},{"zip_code":92301,"Median":238600,"lat":34.65183,"lng":-117.52617,"mortgage":3670},{"zip_code":92305,"Median":296400,"lat":34.17018,"lng":-116.83231,"mortgage":62},{"zip_code":92307,"Median":301700,"lat":34.59078,"lng":-117.14127,"mortgage":6223},{"zip_code":92308,"Median":282100,"lat":34.42005,"lng":-117.15558,"mortgage":6993},{"zip_code":92309,"Median":86300,"lat":35.24942,"lng":-116.15578,"mortgage":41},{"zip_code":92311,"Median":144900,"lat":34.97204,"lng":-117.0101,"mortgage":2685},{"zip_code":92313,"Median":378100,"lat":34.03142,"lng":-117.31373,"mortgage":1945},{"zip_code":92314,"Median":307100,"lat":34.2576,"lng":-116.80075,"mortgage":2150},{"zip_code":92315,"Median":467800,"lat":34.22011,"lng":-116.95301,"mortgage":856},{"zip_code":92316,"Median":339100,"lat":34.0576,"lng":-117.39076,"mortgage":3498},{"zip_code":92317,"Median":504900,"lat":34.24507,"lng":-117.20874,"mortgage":134},{"zip_code":92320,"Median":279200,"lat":33.9874,"lng":-117.05024,"mortgage":1635},{"zip_code":92321,"Median":370900,"lat":34.24748,"lng":-117.14694,"mortgage":222},{"zip_code":92322,"Median":273100,"lat":34.25419,"lng":-117.32259,"mortgage":260},{"zip_code":92324,"Median":326000,"lat":34.03398,"lng":-117.29008,"mortgage":6227},{"zip_code":92325,"Median":278800,"lat":34.24554,"lng":-117.27506,"mortgage":1783},{"zip_code":92327,"Median":151700,"lat":34.86632,"lng":-116.84347,"mortgage":0},{"zip_code":92328,"Median":68500,"lat":36.39482,"lng":-117.02718,"mortgage":7},{"zip_code":92333,"Median":372600,"lat":34.26951,"lng":-116.96277,"mortgage":123},{"zip_code":92335,"Median":344200,"lat":34.08733,"lng":-117.46519,"mortgage":8298},{"zip_code":92336,"Median":460100,"lat":34.13686,"lng":-117.46033,"mortgage":17876},{"zip_code":92337,"Median":403600,"lat":34.04967,"lng":-117.47145,"mortgage":6244},{"zip_code":92339,"Median":335700,"lat":34.08189,"lng":-116.83838,"mortgage":260},{"zip_code":92341,"Median":255200,"lat":34.24009,"lng":-117.06798,"mortgage":98},{"zip_code":92342,"Median":266100,"lat":34.76078,"lng":-117.33795,"mortgage":1070},{"zip_code":92344,"Median":345700,"lat":34.39176,"lng":-117.40657,"mortgage":3243},{"zip_code":92345,"Median":277100,"lat":34.36415,"lng":-117.30984,"mortgage":11403},{"zip_code":92346,"Median":367300,"lat":34.12629,"lng":-117.1792,"mortgage":8475},{"zip_code":92347,"Median":72000,"lat":34.95003,"lng":-117.25802,"mortgage":117},{"zip_code":92352,"Median":457800,"lat":34.26824,"lng":-117.18486,"mortgage":1224},{"zip_code":92354,"Median":411400,"lat":34.04933,"lng":-117.25119,"mortgage":2261},{"zip_code":92356,"Median":169100,"lat":34.49633,"lng":-116.89265,"mortgage":836},{"zip_code":92358,"Median":418800,"lat":34.24624,"lng":-117.56762,"mortgage":178},{"zip_code":92359,"Median":341600,"lat":34.08296,"lng":-117.07026,"mortgage":1480},{"zip_code":92363,"Median":125400,"lat":34.70863,"lng":-114.57562,"mortgage":513},{"zip_code":92365,"Median":117600,"lat":34.88843,"lng":-116.54129,"mortgage":249},{"zip_code":92368,"Median":259800,"lat":34.65508,"lng":-117.30893,"mortgage":68},{"zip_code":92371,"Median":272700,"lat":34.43837,"lng":-117.54266,"mortgage":3075},{"zip_code":92372,"Median":294100,"lat":34.45097,"lng":-117.62859,"mortgage":987},{"zip_code":92373,"Median":530800,"lat":34.00648,"lng":-117.15351,"mortgage":4841},{"zip_code":92374,"Median":413600,"lat":34.06738,"lng":-117.17482,"mortgage":5822},{"zip_code":92376,"Median":332100,"lat":34.11053,"lng":-117.37997,"mortgage":8913},{"zip_code":92377,"Median":418300,"lat":34.15234,"lng":-117.40412,"mortgage":3235},{"zip_code":92378,"Median":289500,"lat":34.23206,"lng":-117.22483,"mortgage":101},{"zip_code":92382,"Median":296600,"lat":34.20604,"lng":-117.11276,"mortgage":899},{"zip_code":92385,"Median":322000,"lat":34.21345,"lng":-117.23057,"mortgage":85},{"zip_code":92386,"Median":304800,"lat":34.23702,"lng":-116.82523,"mortgage":307},{"zip_code":92389,"Median":103800,"lat":35.82902,"lng":-116.24813,"mortgage":5},{"zip_code":92391,"Median":277100,"lat":34.23958,"lng":-117.23665,"mortgage":334},{"zip_code":92392,"Median":276900,"lat":34.479,"lng":-117.40884,"mortgage":8127},{"zip_code":92394,"Median":261300,"lat":34.563,"lng":-117.3542,"mortgage":4968},{"zip_code":92395,"Median":255100,"lat":34.50032,"lng":-117.29479,"mortgage":5699},{"zip_code":92397,"Median":360900,"lat":34.36212,"lng":-117.69136,"mortgage":968},{"zip_code":92399,"Median":368400,"lat":34.04469,"lng":-117.004,"mortgage":8324},{"zip_code":92401,"Median":264300,"lat":34.10586,"lng":-117.29188,"mortgage":93},{"zip_code":92404,"Median":289900,"lat":34.17862,"lng":-117.23891,"mortgage":6642},{"zip_code":92405,"Median":277800,"lat":34.14578,"lng":-117.30225,"mortgage":3266},{"zip_code":92407,"Median":367300,"lat":34.22394,"lng":-117.38839,"mortgage":8740},{"zip_code":92408,"Median":304900,"lat":34.0845,"lng":-117.2653,"mortgage":1071},{"zip_code":92410,"Median":207500,"lat":34.10655,"lng":-117.29574,"mortgage":3264},{"zip_code":92411,"Median":238400,"lat":34.12214,"lng":-117.32291,"mortgage":2142},{"zip_code":92501,"Median":358700,"lat":33.99496,"lng":-117.37367,"mortgage":2271},{"zip_code":92503,"Median":426000,"lat":33.88308,"lng":-117.45222,"mortgage":12722},{"zip_code":92504,"Median":391600,"lat":33.90607,"lng":-117.39854,"mortgage":7116},{"zip_code":92505,"Median":408100,"lat":33.92663,"lng":-117.4928,"mortgage":5286},{"zip_code":92506,"Median":503700,"lat":33.93478,"lng":-117.36689,"mortgage":8141},{"zip_code":92507,"Median":396100,"lat":33.97464,"lng":-117.32234,"mortgage":4353},{"zip_code":92508,"Median":536600,"lat":33.89039,"lng":-117.3282,"mortgage":5962},{"zip_code":92509,"Median":391900,"lat":34.00293,"lng":-117.44547,"mortgage":9483},{"zip_code":92530,"Median":368200,"lat":33.63386,"lng":-117.37949,"mortgage":7724},{"zip_code":92532,"Median":413400,"lat":33.69052,"lng":-117.30241,"mortgage":4853},{"zip_code":92536,"Median":374100,"lat":33.48791,"lng":-116.81528,"mortgage":339},{"zip_code":92539,"Median":242300,"lat":33.51579,"lng":-116.64432,"mortgage":520},{"zip_code":92543,"Median":169000,"lat":33.69867,"lng":-116.97916,"mortgage":3855},{"zip_code":92544,"Median":271700,"lat":33.64581,"lng":-116.86033,"mortgage":6968},{"zip_code":92545,"Median":252000,"lat":33.7311,"lng":-117.0359,"mortgage":5773},{"zip_code":92548,"Median":192700,"lat":33.76392,"lng":-117.10907,"mortgage":762},{"zip_code":92549,"Median":400300,"lat":33.80886,"lng":-116.71212,"mortgage":491},{"zip_code":92551,"Median":332400,"lat":33.88148,"lng":-117.22521,"mortgage":4235},{"zip_code":92553,"Median":321800,"lat":33.92335,"lng":-117.24532,"mortgage":7286},{"zip_code":92555,"Median":403300,"lat":33.9133,"lng":-117.10867,"mortgage":7489},{"zip_code":92557,"Median":362200,"lat":33.96855,"lng":-117.25704,"mortgage":7486},{"zip_code":92561,"Median":369100,"lat":33.63704,"lng":-116.57441,"mortgage":226},{"zip_code":92562,"Median":478500,"lat":33.53579,"lng":-117.35098,"mortgage":11036},{"zip_code":92563,"Median":459800,"lat":33.58435,"lng":-117.14458,"mortgage":12422},{"zip_code":92567,"Median":379400,"lat":33.82378,"lng":-117.10305,"mortgage":1445},{"zip_code":92570,"Median":326200,"lat":33.78377,"lng":-117.31737,"mortgage":6705},{"zip_code":92571,"Median":336100,"lat":33.84182,"lng":-117.19522,"mortgage":7086},{"zip_code":92582,"Median":339000,"lat":33.80489,"lng":-117.01873,"mortgage":3167},{"zip_code":92583,"Median":251700,"lat":33.79662,"lng":-116.93188,"mortgage":3782},{"zip_code":92584,"Median":422000,"lat":33.66167,"lng":-117.18079,"mortgage":10344},{"zip_code":92585,"Median":371400,"lat":33.74217,"lng":-117.16723,"mortgage":4764},{"zip_code":92586,"Median":276200,"lat":33.70773,"lng":-117.20045,"mortgage":4090},{"zip_code":92587,"Median":442700,"lat":33.69466,"lng":-117.25196,"mortgage":3369},{"zip_code":92590,"Median":1071800,"lat":33.48391,"lng":-117.22075,"mortgage":518},{"zip_code":92591,"Median":501600,"lat":33.53432,"lng":-117.1092,"mortgage":6276},{"zip_code":92592,"Median":522400,"lat":33.511,"lng":-117.0242,"mortgage":15790},{"zip_code":92595,"Median":417300,"lat":33.61638,"lng":-117.26028,"mortgage":5959},{"zip_code":92596,"Median":475400,"lat":33.64739,"lng":-117.07641,"mortgage":6085},{"zip_code":92602,"Median":933600,"lat":33.72645,"lng":-117.7287,"mortgage":2808},{"zip_code":92603,"Median":1303200,"lat":33.62927,"lng":-117.79408,"mortgage":2877},{"zip_code":92604,"Median":818400,"lat":33.6879,"lng":-117.7889,"mortgage":4050},{"zip_code":92606,"Median":853800,"lat":33.69849,"lng":-117.8123,"mortgage":2312},{"zip_code":92610,"Median":807300,"lat":33.68336,"lng":-117.65404,"mortgage":2713},{"zip_code":92612,"Median":789000,"lat":33.65984,"lng":-117.82457,"mortgage":2303},{"zip_code":92614,"Median":789500,"lat":33.68173,"lng":-117.83316,"mortgage":2876},{"zip_code":92617,"Median":585600,"lat":33.64197,"lng":-117.84103,"mortgage":887},{"zip_code":92618,"Median":960800,"lat":33.66729,"lng":-117.73362,"mortgage":5654},{"zip_code":92620,"Median":982000,"lat":33.70661,"lng":-117.75695,"mortgage":8070},{"zip_code":92624,"Median":913400,"lat":33.46082,"lng":-117.66656,"mortgage":973},{"zip_code":92625,"Median":2000000,"lat":33.60229,"lng":-117.86551,"mortgage":2180},{"zip_code":92626,"Median":842500,"lat":33.67896,"lng":-117.90844,"mortgage":6066},{"zip_code":92627,"Median":842100,"lat":33.64786,"lng":-117.9205,"mortgage":6506},{"zip_code":92629,"Median":981600,"lat":33.47678,"lng":-117.70459,"mortgage":5271},{"zip_code":92630,"Median":694800,"lat":33.64709,"lng":-117.68428,"mortgage":11846},{"zip_code":92637,"Median":327000,"lat":33.60796,"lng":-117.72799,"mortgage":2343},{"zip_code":92646,"Median":814900,"lat":33.66525,"lng":-117.96755,"mortgage":11119},{"zip_code":92647,"Median":793300,"lat":33.72395,"lng":-118.00685,"mortgage":6011},{"zip_code":92648,"Median":985800,"lat":33.68212,"lng":-118.0101,"mortgage":5943},{"zip_code":92649,"Median":885000,"lat":33.72037,"lng":-118.04423,"mortgage":5369},{"zip_code":92651,"Median":2000000,"lat":33.56535,"lng":-117.77399,"mortgage":4519},{"zip_code":92653,"Median":771800,"lat":33.59276,"lng":-117.69994,"mortgage":5343},{"zip_code":92655,"Median":583300,"lat":33.74606,"lng":-117.98765,"mortgage":414},{"zip_code":92656,"Median":679300,"lat":33.57518,"lng":-117.73036,"mortgage":9149},{"zip_code":92657,"Median":2000000,"lat":33.59571,"lng":-117.83069,"mortgage":1798},{"zip_code":92660,"Median":1905400,"lat":33.63375,"lng":-117.87504,"mortgage":5557},{"zip_code":92661,"Median":2000000,"lat":33.60231,"lng":-117.89872,"mortgage":334},{"zip_code":92662,"Median":2000000,"lat":33.60547,"lng":-117.89218,"mortgage":375},{"zip_code":92663,"Median":1590000,"lat":33.62328,"lng":-117.93022,"mortgage":3021},{"zip_code":92672,"Median":980200,"lat":33.3825,"lng":-117.5403,"mortgage":5304},{"zip_code":92673,"Median":972200,"lat":33.46611,"lng":-117.61204,"mortgage":5972},{"zip_code":92675,"Median":770000,"lat":33.49977,"lng":-117.65366,"mortgage":6154},{"zip_code":92676,"Median":712200,"lat":33.75306,"lng":-117.63534,"mortgage":494},{"zip_code":92677,"Median":909500,"lat":33.52777,"lng":-117.70523,"mortgage":12322},{"zip_code":92678,"Median":777000,"lat":33.64627,"lng":-117.50662,"mortgage":170},{"zip_code":92679,"Median":970200,"lat":33.65274,"lng":-117.56048,"mortgage":7640},{"zip_code":92683,"Median":651200,"lat":33.75242,"lng":-117.99383,"mortgage":9299},{"zip_code":92688,"Median":673400,"lat":33.61737,"lng":-117.61131,"mortgage":9199},{"zip_code":92691,"Median":750800,"lat":33.61051,"lng":-117.66627,"mortgage":9685},{"zip_code":92692,"Median":795500,"lat":33.60948,"lng":-117.64396,"mortgage":9723},{"zip_code":92694,"Median":844700,"lat":33.51502,"lng":-117.58065,"mortgage":7182},{"zip_code":92701,"Median":521700,"lat":33.7486,"lng":-117.85877,"mortgage":2592},{"zip_code":92703,"Median":486000,"lat":33.74853,"lng":-117.90621,"mortgage":4123},{"zip_code":92704,"Median":534800,"lat":33.72038,"lng":-117.90807,"mortgage":6354},{"zip_code":92705,"Median":914900,"lat":33.755,"lng":-117.81488,"mortgage":6886},{"zip_code":92706,"Median":673300,"lat":33.76602,"lng":-117.88174,"mortgage":4428},{"zip_code":92707,"Median":539700,"lat":33.70991,"lng":-117.87045,"mortgage":5024},{"zip_code":92708,"Median":816900,"lat":33.71046,"lng":-117.95132,"mortgage":8066},{"zip_code":92780,"Median":669400,"lat":33.73685,"lng":-117.81968,"mortgage":5451},{"zip_code":92782,"Median":879300,"lat":33.72833,"lng":-117.79753,"mortgage":4781},{"zip_code":92801,"Median":543200,"lat":33.84441,"lng":-117.95175,"mortgage":4519},{"zip_code":92802,"Median":577500,"lat":33.80831,"lng":-117.9237,"mortgage":2856},{"zip_code":92804,"Median":594400,"lat":33.81801,"lng":-117.97517,"mortgage":7157},{"zip_code":92805,"Median":583800,"lat":33.83003,"lng":-117.90568,"mortgage":6288},{"zip_code":92806,"Median":623300,"lat":33.83884,"lng":-117.87054,"mortgage":3618},{"zip_code":92807,"Median":731100,"lat":33.85001,"lng":-117.78946,"mortgage":7230},{"zip_code":92808,"Median":807100,"lat":33.85623,"lng":-117.74018,"mortgage":4640},{"zip_code":92821,"Median":700900,"lat":33.92997,"lng":-117.86986,"mortgage":6284},{"zip_code":92823,"Median":913900,"lat":33.92536,"lng":-117.80024,"mortgage":1229},{"zip_code":92831,"Median":676300,"lat":33.8795,"lng":-117.89607,"mortgage":3626},{"zip_code":92832,"Median":615300,"lat":33.86871,"lng":-117.92914,"mortgage":1976},{"zip_code":92833,"Median":686700,"lat":33.88051,"lng":-117.96112,"mortgage":6996},{"zip_code":92835,"Median":831100,"lat":33.90171,"lng":-117.91529,"mortgage":4714},{"zip_code":92840,"Median":590900,"lat":33.78584,"lng":-117.93202,"mortgage":5731},{"zip_code":92841,"Median":609900,"lat":33.7868,"lng":-117.98207,"mortgage":3067},{"zip_code":92843,"Median":570200,"lat":33.76399,"lng":-117.93153,"mortgage":3784},{"zip_code":92844,"Median":545400,"lat":33.76561,"lng":-117.96952,"mortgage":1903},{"zip_code":92845,"Median":668900,"lat":33.78292,"lng":-118.0264,"mortgage":2836},{"zip_code":92860,"Median":595300,"lat":33.9262,"lng":-117.54913,"mortgage":4664},{"zip_code":92861,"Median":1287100,"lat":33.81801,"lng":-117.81031,"mortgage":1215},{"zip_code":92865,"Median":652400,"lat":33.82887,"lng":-117.84925,"mortgage":3498},{"zip_code":92866,"Median":722200,"lat":33.78453,"lng":-117.84479,"mortgage":1271},{"zip_code":92867,"Median":780900,"lat":33.81443,"lng":-117.79617,"mortgage":6447},{"zip_code":92868,"Median":531900,"lat":33.78799,"lng":-117.87637,"mortgage":2209},{"zip_code":92869,"Median":770700,"lat":33.79479,"lng":-117.7621,"mortgage":6118},{"zip_code":92870,"Median":696700,"lat":33.88087,"lng":-117.85522,"mortgage":7690},{"zip_code":92879,"Median":452900,"lat":33.87979,"lng":-117.5357,"mortgage":5602},{"zip_code":92880,"Median":601700,"lat":33.92096,"lng":-117.61052,"mortgage":12377},{"zip_code":92881,"Median":615000,"lat":33.82163,"lng":-117.56763,"mortgage":5867},{"zip_code":92882,"Median":521000,"lat":33.86367,"lng":-117.59989,"mortgage":9434},{"zip_code":92883,"Median":538500,"lat":33.75994,"lng":-117.47827,"mortgage":7439},{"zip_code":92886,"Median":864700,"lat":33.89517,"lng":-117.80154,"mortgage":10083},{"zip_code":92887,"Median":903900,"lat":33.88727,"lng":-117.73389,"mortgage":4144},{"zip_code":93001,"Median":630400,"lat":34.35321,"lng":-119.31868,"mortgage":3783},{"zip_code":93003,"Median":617700,"lat":34.28434,"lng":-119.22256,"mortgage":7679},{"zip_code":93004,"Median":608100,"lat":34.27901,"lng":-119.16537,"mortgage":4900},{"zip_code":93010,"Median":662300,"lat":34.23007,"lng":-119.07437,"mortgage":7257},{"zip_code":93012,"Median":657700,"lat":34.20518,"lng":-118.99309,"mortgage":6602},{"zip_code":93013,"Median":822400,"lat":34.42697,"lng":-119.48032,"mortgage":2080},{"zip_code":93015,"Median":456600,"lat":34.40969,"lng":-118.87807,"mortgage":2021},{"zip_code":93021,"Median":690900,"lat":34.30417,"lng":-118.88274,"mortgage":7302},{"zip_code":93022,"Median":610500,"lat":34.40324,"lng":-119.29836,"mortgage":1007},{"zip_code":93023,"Median":692700,"lat":34.50372,"lng":-119.24856,"mortgage":3233},{"zip_code":93030,"Median":530000,"lat":34.2051,"lng":-119.1753,"mortgage":5075},{"zip_code":93033,"Median":442700,"lat":34.15401,"lng":-119.12296,"mortgage":6268},{"zip_code":93035,"Median":632800,"lat":34.19034,"lng":-119.22879,"mortgage":3608},{"zip_code":93036,"Median":527700,"lat":34.24911,"lng":-119.15977,"mortgage":5045},{"zip_code":93040,"Median":393500,"lat":34.59337,"lng":-118.93657,"mortgage":271},{"zip_code":93041,"Median":446800,"lat":34.14956,"lng":-119.17458,"mortgage":2322},{"zip_code":93060,"Median":446700,"lat":34.36543,"lng":-119.09563,"mortgage":3294},{"zip_code":93063,"Median":626900,"lat":34.30922,"lng":-118.69041,"mortgage":10246},{"zip_code":93065,"Median":642900,"lat":34.26206,"lng":-118.77151,"mortgage":14211},{"zip_code":93066,"Median":1068500,"lat":34.28851,"lng":-119.02848,"mortgage":364},{"zip_code":93067,"Median":1875000,"lat":34.42162,"lng":-119.59277,"mortgage":82},{"zip_code":93101,"Median":905500,"lat":34.41925,"lng":-119.70808,"mortgage":2244},{"zip_code":93103,"Median":1117000,"lat":34.43888,"lng":-119.68173,"mortgage":2312},{"zip_code":93105,"Median":1180200,"lat":34.52702,"lng":-119.76082,"mortgage":3753},{"zip_code":93108,"Median":2000000,"lat":34.44934,"lng":-119.60397,"mortgage":1739},{"zip_code":93109,"Median":1413400,"lat":34.40662,"lng":-119.72682,"mortgage":1450},{"zip_code":93110,"Median":875700,"lat":34.43913,"lng":-119.7666,"mortgage":2361},{"zip_code":93111,"Median":961100,"lat":34.44932,"lng":-119.80223,"mortgage":2637},{"zip_code":93117,"Median":838300,"lat":34.49102,"lng":-120.08201,"mortgage":4267},{"zip_code":93201,"Median":91000,"lat":35.8555,"lng":-119.48338,"mortgage":50},{"zip_code":93202,"Median":187500,"lat":36.3187,"lng":-119.7076,"mortgage":702},{"zip_code":93203,"Median":192800,"lat":35.12158,"lng":-118.8468,"mortgage":1725},{"zip_code":93204,"Median":180200,"lat":35.90819,"lng":-120.06776,"mortgage":1033},{"zip_code":93205,"Median":109500,"lat":35.5387,"lng":-118.45463,"mortgage":179},{"zip_code":93206,"Median":152200,"lat":35.44402,"lng":-119.47578,"mortgage":121},{"zip_code":93207,"Median":200000,"lat":35.88721,"lng":-118.63153,"mortgage":29},{"zip_code":93210,"Median":203100,"lat":36.19519,"lng":-120.43245,"mortgage":2102},{"zip_code":93212,"Median":176400,"lat":36.01649,"lng":-119.56937,"mortgage":1312},{"zip_code":93215,"Median":215100,"lat":35.7764,"lng":-119.18835,"mortgage":4525},{"zip_code":93218,"Median":134500,"lat":35.86194,"lng":-119.03822,"mortgage":90},{"zip_code":93219,"Median":162500,"lat":35.87908,"lng":-119.28818,"mortgage":819},{"zip_code":93221,"Median":278600,"lat":36.29637,"lng":-119.02992,"mortgage":1918},{"zip_code":93222,"Median":282500,"lat":34.89835,"lng":-119.25983,"mortgage":562},{"zip_code":93223,"Median":189100,"lat":36.30117,"lng":-119.20789,"mortgage":1091},{"zip_code":93224,"Median":152200,"lat":35.21687,"lng":-119.58087,"mortgage":51},{"zip_code":93225,"Median":247900,"lat":34.78532,"lng":-119.04196,"mortgage":1147},{"zip_code":93226,"Median":227600,"lat":35.7476,"lng":-118.73462,"mortgage":12},{"zip_code":93230,"Median":252300,"lat":36.28967,"lng":-119.62514,"mortgage":9022},{"zip_code":93234,"Median":190000,"lat":36.19608,"lng":-120.08477,"mortgage":300},{"zip_code":93235,"Median":175600,"lat":36.38507,"lng":-119.22314,"mortgage":427},{"zip_code":93237,"Median":228400,"lat":36.47452,"lng":-118.90426,"mortgage":37},{"zip_code":93240,"Median":177900,"lat":35.62425,"lng":-118.4645,"mortgage":519},{"zip_code":93241,"Median":147600,"lat":35.24922,"lng":-118.91224,"mortgage":964},{"zip_code":93242,"Median":264100,"lat":36.44115,"lng":-119.73024,"mortgage":377},{"zip_code":93243,"Median":359400,"lat":34.84057,"lng":-118.81769,"mortgage":89},{"zip_code":93244,"Median":177800,"lat":36.3908,"lng":-118.99733,"mortgage":34},{"zip_code":93245,"Median":261400,"lat":36.28614,"lng":-119.83405,"mortgage":4048},{"zip_code":93247,"Median":208800,"lat":36.20234,"lng":-119.08277,"mortgage":1899},{"zip_code":93249,"Median":149100,"lat":35.67033,"lng":-119.85814,"mortgage":123},{"zip_code":93250,"Median":203700,"lat":35.66456,"lng":-119.20278,"mortgage":1267},{"zip_code":93252,"Median":151100,"lat":34.80685,"lng":-119.34664,"mortgage":119},{"zip_code":93254,"Median":182200,"lat":34.92498,"lng":-119.74834,"mortgage":153},{"zip_code":93255,"Median":131500,"lat":35.68292,"lng":-118.0798,"mortgage":91},{"zip_code":93256,"Median":162700,"lat":35.96805,"lng":-119.31251,"mortgage":485},{"zip_code":93257,"Median":211800,"lat":35.98708,"lng":-118.89493,"mortgage":8028},{"zip_code":93258,"Median":95000,"lat":36.05833,"lng":-119.15209,"mortgage":76},{"zip_code":93260,"Median":143200,"lat":35.81909,"lng":-118.66116,"mortgage":42},{"zip_code":93261,"Median":127600,"lat":35.81147,"lng":-119.11673,"mortgage":151},{"zip_code":93263,"Median":206700,"lat":35.48722,"lng":-119.27835,"mortgage":2283},{"zip_code":93265,"Median":305900,"lat":36.20713,"lng":-118.70876,"mortgage":925},{"zip_code":93267,"Median":143000,"lat":36.14279,"lng":-119.0742,"mortgage":732},{"zip_code":93268,"Median":164200,"lat":35.16725,"lng":-119.40785,"mortgage":1278},{"zip_code":93270,"Median":221700,"lat":35.94703,"lng":-119.05669,"mortgage":725},{"zip_code":93271,"Median":333600,"lat":36.43661,"lng":-118.86903,"mortgage":503},{"zip_code":93272,"Median":185200,"lat":36.04818,"lng":-119.34535,"mortgage":178},{"zip_code":93274,"Median":246600,"lat":36.17978,"lng":-119.37949,"mortgage":8991},{"zip_code":93277,"Median":256600,"lat":36.29963,"lng":-119.38139,"mortgage":7060},{"zip_code":93280,"Median":188300,"lat":35.65204,"lng":-119.44716,"mortgage":2347},{"zip_code":93283,"Median":119800,"lat":35.58478,"lng":-118.28854,"mortgage":301},{"zip_code":93285,"Median":101600,"lat":35.72233,"lng":-118.50871,"mortgage":261},{"zip_code":93286,"Median":232800,"lat":36.45149,"lng":-119.1079,"mortgage":946},{"zip_code":93287,"Median":221900,"lat":35.72387,"lng":-118.91958,"mortgage":29},{"zip_code":93291,"Median":294800,"lat":36.38931,"lng":-119.36838,"mortgage":7912},{"zip_code":93292,"Median":252500,"lat":36.3763,"lng":-119.22183,"mortgage":6059},{"zip_code":93301,"Median":190600,"lat":35.38428,"lng":-119.02057,"mortgage":832},{"zip_code":93304,"Median":179300,"lat":35.33938,"lng":-119.02368,"mortgage":4348},{"zip_code":93305,"Median":169300,"lat":35.38989,"lng":-118.98515,"mortgage":2546},{"zip_code":93306,"Median":227700,"lat":35.46595,"lng":-118.78445,"mortgage":10002},{"zip_code":93307,"Median":187100,"lat":35.2487,"lng":-118.93253,"mortgage":7536},{"zip_code":93308,"Median":242800,"lat":35.5498,"lng":-118.93389,"mortgage":5576},{"zip_code":93309,"Median":226200,"lat":35.34266,"lng":-119.06461,"mortgage":7195},{"zip_code":93311,"Median":324800,"lat":35.15378,"lng":-119.16567,"mortgage":8646},{"zip_code":93312,"Median":328400,"lat":35.39186,"lng":-119.11954,"mortgage":11445},{"zip_code":93313,"Median":283400,"lat":35.16363,"lng":-119.04715,"mortgage":9676},{"zip_code":93314,"Median":412200,"lat":35.385,"lng":-119.23741,"mortgage":6815},{"zip_code":93401,"Median":775100,"lat":35.23539,"lng":-120.61834,"mortgage":3595},{"zip_code":93402,"Median":616100,"lat":35.29082,"lng":-120.8392,"mortgage":2562},{"zip_code":93405,"Median":753500,"lat":35.29672,"lng":-120.72618,"mortgage":1885},{"zip_code":93420,"Median":710000,"lat":35.16682,"lng":-120.46617,"mortgage":5420},{"zip_code":93422,"Median":573000,"lat":35.4638,"lng":-120.69007,"mortgage":6062},{"zip_code":93424,"Median":888000,"lat":35.20141,"lng":-120.78394,"mortgage":233},{"zip_code":93426,"Median":446200,"lat":35.84682,"lng":-120.97233,"mortgage":207},{"zip_code":93427,"Median":621600,"lat":34.62724,"lng":-120.22465,"mortgage":939},{"zip_code":93428,"Median":705200,"lat":35.58995,"lng":-121.02943,"mortgage":1393},{"zip_code":93430,"Median":896700,"lat":35.49214,"lng":-120.92422,"mortgage":478},{"zip_code":93432,"Median":657700,"lat":35.47686,"lng":-120.47228,"mortgage":224},{"zip_code":93433,"Median":577300,"lat":35.12045,"lng":-120.61894,"mortgage":1825},{"zip_code":93434,"Median":337100,"lat":34.94086,"lng":-120.6113,"mortgage":695},{"zip_code":93436,"Median":373600,"lat":34.60888,"lng":-120.4002,"mortgage":6088},{"zip_code":93440,"Median":553800,"lat":34.74606,"lng":-120.25292,"mortgage":243},{"zip_code":93441,"Median":927500,"lat":34.73296,"lng":-120.09721,"mortgage":136},{"zip_code":93442,"Median":711900,"lat":35.4,"lng":-120.80495,"mortgage":1865},{"zip_code":93444,"Median":643200,"lat":35.03553,"lng":-120.50293,"mortgage":3603},{"zip_code":93445,"Median":425200,"lat":35.03319,"lng":-120.62002,"mortgage":1061},{"zip_code":93446,"Median":502500,"lat":35.65861,"lng":-120.71888,"mortgage":7940},{"zip_code":93449,"Median":771400,"lat":35.15803,"lng":-120.6504,"mortgage":1711},{"zip_code":93450,"Median":338100,"lat":36.05791,"lng":-120.82894,"mortgage":31},{"zip_code":93451,"Median":427400,"lat":35.89398,"lng":-120.56733,"mortgage":665},{"zip_code":93452,"Median":281800,"lat":35.71078,"lng":-121.20396,"mortgage":49},{"zip_code":93453,"Median":504200,"lat":35.31339,"lng":-120.1655,"mortgage":349},{"zip_code":93454,"Median":375900,"lat":34.94834,"lng":-120.23425,"mortgage":4553},{"zip_code":93455,"Median":452600,"lat":34.84195,"lng":-120.45522,"mortgage":8136},{"zip_code":93458,"Median":361300,"lat":34.95477,"lng":-120.49042,"mortgage":4122},{"zip_code":93460,"Median":962500,"lat":34.66214,"lng":-119.90091,"mortgage":1061},{"zip_code":93461,"Median":346500,"lat":35.63519,"lng":-120.26951,"mortgage":221},{"zip_code":93463,"Median":892900,"lat":34.60688,"lng":-120.13495,"mortgage":1519},{"zip_code":93465,"Median":763200,"lat":35.54267,"lng":-120.73417,"mortgage":1861},{"zip_code":93501,"Median":120300,"lat":35.0411,"lng":-118.22922,"mortgage":431},{"zip_code":93505,"Median":169100,"lat":35.15708,"lng":-117.90934,"mortgage":1889},{"zip_code":93510,"Median":589000,"lat":34.45627,"lng":-118.2109,"mortgage":1507},{"zip_code":93512,"Median":228800,"lat":37.87379,"lng":-118.53455,"mortgage":56},{"zip_code":93513,"Median":269600,"lat":37.18401,"lng":-118.17129,"mortgage":213},{"zip_code":93514,"Median":337700,"lat":37.4947,"lng":-118.38514,"mortgage":1973},{"zip_code":93516,"Median":74500,"lat":35.0081,"lng":-117.64268,"mortgage":227},{"zip_code":93517,"Median":254200,"lat":38.27091,"lng":-119.27372,"mortgage":119},{"zip_code":93518,"Median":235800,"lat":35.37675,"lng":-118.47314,"mortgage":158},{"zip_code":93523,"Median":81200,"lat":34.99788,"lng":-117.88308,"mortgage":145},{"zip_code":93526,"Median":223500,"lat":36.85941,"lng":-118.25378,"mortgage":67},{"zip_code":93527,"Median":212100,"lat":35.80294,"lng":-117.98504,"mortgage":328},{"zip_code":93529,"Median":485000,"lat":37.7832,"lng":-119.1375,"mortgage":80},{"zip_code":93531,"Median":444600,"lat":35.22937,"lng":-118.60781,"mortgage":88},{"zip_code":93532,"Median":318700,"lat":34.68571,"lng":-118.55914,"mortgage":642},{"zip_code":93534,"Median":257600,"lat":34.71759,"lng":-118.15079,"mortgage":3828},{"zip_code":93535,"Median":241800,"lat":34.69908,"lng":-117.89613,"mortgage":9270},{"zip_code":93536,"Median":377300,"lat":34.75267,"lng":-118.3889,"mortgage":12047},{"zip_code":93541,"Median":216300,"lat":37.99678,"lng":-119.01847,"mortgage":0},{"zip_code":93543,"Median":266000,"lat":34.47916,"lng":-117.97357,"mortgage":1677},{"zip_code":93544,"Median":270400,"lat":34.49063,"lng":-117.75505,"mortgage":307},{"zip_code":93545,"Median":197600,"lat":36.6046,"lng":-118.02721,"mortgage":292},{"zip_code":93546,"Median":493800,"lat":37.60573,"lng":-118.85219,"mortgage":1593},{"zip_code":93549,"Median":163800,"lat":36.27728,"lng":-117.96016,"mortgage":23},{"zip_code":93550,"Median":280900,"lat":34.38305,"lng":-118.04926,"mortgage":8461},{"zip_code":93551,"Median":410900,"lat":34.59404,"lng":-118.22634,"mortgage":9950},{"zip_code":93552,"Median":324500,"lat":34.58412,"lng":-118.02386,"mortgage":6184},{"zip_code":93553,"Median":288800,"lat":34.44515,"lng":-117.89611,"mortgage":251},{"zip_code":93555,"Median":194600,"lat":35.58596,"lng":-117.68446,"mortgage":4943},{"zip_code":93560,"Median":240800,"lat":34.87116,"lng":-118.32594,"mortgage":3475},{"zip_code":93561,"Median":295000,"lat":35.10904,"lng":-118.52016,"mortgage":6164},{"zip_code":93562,"Median":57600,"lat":35.70667,"lng":-117.34263,"mortgage":78},{"zip_code":93591,"Median":207200,"lat":34.59656,"lng":-117.80955,"mortgage":1185},{"zip_code":93601,"Median":327800,"lat":37.39395,"lng":-119.73702,"mortgage":289},{"zip_code":93602,"Median":291300,"lat":37.0644,"lng":-119.37484,"mortgage":562},{"zip_code":93604,"Median":639500,"lat":37.3717,"lng":-119.52215,"mortgage":49},{"zip_code":93605,"Median":297700,"lat":37.17622,"lng":-119.24953,"mortgage":11},{"zip_code":93606,"Median":169200,"lat":36.79871,"lng":-120.01625,"mortgage":105},{"zip_code":93608,"Median":154600,"lat":36.5055,"lng":-120.3418,"mortgage":33},{"zip_code":93609,"Median":206000,"lat":36.52616,"lng":-119.86388,"mortgage":512},{"zip_code":93610,"Median":250600,"lat":37.09047,"lng":-120.29036,"mortgage":1741},{"zip_code":93611,"Median":365400,"lat":36.82552,"lng":-119.68115,"mortgage":8785},{"zip_code":93612,"Median":243900,"lat":36.81548,"lng":-119.71076,"mortgage":3526},{"zip_code":93614,"Median":307300,"lat":37.21282,"lng":-119.72659,"mortgage":2596},{"zip_code":93615,"Median":171900,"lat":36.50374,"lng":-119.28385,"mortgage":292},{"zip_code":93616,"Median":198000,"lat":36.65468,"lng":-119.59437,"mortgage":260},{"zip_code":93618,"Median":237000,"lat":36.52213,"lng":-119.38661,"mortgage":3372},{"zip_code":93619,"Median":452500,"lat":36.91656,"lng":-119.57372,"mortgage":9992},{"zip_code":93620,"Median":267700,"lat":37.0448,"lng":-120.6223,"mortgage":884},{"zip_code":93622,"Median":185900,"lat":36.79283,"lng":-120.62434,"mortgage":717},{"zip_code":93625,"Median":298100,"lat":36.62423,"lng":-119.67173,"mortgage":936},{"zip_code":93626,"Median":509400,"lat":37.03278,"lng":-119.68601,"mortgage":601},{"zip_code":93630,"Median":262200,"lat":36.71831,"lng":-120.12912,"mortgage":1923},{"zip_code":93631,"Median":326800,"lat":36.47653,"lng":-119.52131,"mortgage":2351},{"zip_code":93635,"Median":343000,"lat":37.016,"lng":-120.88294,"mortgage":4806},{"zip_code":93636,"Median":375000,"lat":36.98171,"lng":-119.87706,"mortgage":2372},{"zip_code":93637,"Median":275900,"lat":36.91099,"lng":-120.1922,"mortgage":4782},{"zip_code":93638,"Median":239700,"lat":37.0424,"lng":-120.03816,"mortgage":4994},{"zip_code":93640,"Median":204600,"lat":36.67215,"lng":-120.43778,"mortgage":1143},{"zip_code":93643,"Median":237800,"lat":37.27155,"lng":-119.45004,"mortgage":531},{"zip_code":93644,"Median":301300,"lat":37.41245,"lng":-119.59431,"mortgage":1503},{"zip_code":93646,"Median":201700,"lat":36.63218,"lng":-119.28938,"mortgage":736},{"zip_code":93647,"Median":167400,"lat":36.58449,"lng":-119.17773,"mortgage":1213},{"zip_code":93648,"Median":186100,"lat":36.6206,"lng":-119.52062,"mortgage":1416},{"zip_code":93650,"Median":192600,"lat":36.84026,"lng":-119.80038,"mortgage":148},{"zip_code":93651,"Median":366400,"lat":37.00296,"lng":-119.521,"mortgage":268},{"zip_code":93652,"Median":169900,"lat":36.59502,"lng":-119.90458,"mortgage":12},{"zip_code":93653,"Median":443500,"lat":37.24769,"lng":-119.91882,"mortgage":203},{"zip_code":93654,"Median":250200,"lat":36.65747,"lng":-119.402,"mortgage":2970},{"zip_code":93656,"Median":208200,"lat":36.45173,"lng":-119.93615,"mortgage":429},{"zip_code":93657,"Median":307100,"lat":36.78853,"lng":-119.4378,"mortgage":4678},{"zip_code":93660,"Median":207900,"lat":36.60932,"lng":-120.16514,"mortgage":308},{"zip_code":93662,"Median":216900,"lat":36.53963,"lng":-119.64287,"mortgage":2955},{"zip_code":93664,"Median":527800,"lat":37.05671,"lng":-119.17981,"mortgage":75},{"zip_code":93667,"Median":283300,"lat":36.96585,"lng":-119.31511,"mortgage":322},{"zip_code":93668,"Median":370600,"lat":36.65663,"lng":-120.28997,"mortgage":115},{"zip_code":93673,"Median":176100,"lat":36.45229,"lng":-119.48232,"mortgage":35},{"zip_code":93675,"Median":240800,"lat":36.73251,"lng":-119.19285,"mortgage":664},{"zip_code":93701,"Median":164100,"lat":36.74955,"lng":-119.78772,"mortgage":333},{"zip_code":93702,"Median":159800,"lat":36.73942,"lng":-119.75422,"mortgage":2696},{"zip_code":93703,"Median":183200,"lat":36.76884,"lng":-119.76249,"mortgage":2816},{"zip_code":93704,"Median":291600,"lat":36.80012,"lng":-119.80202,"mortgage":3878},{"zip_code":93705,"Median":213400,"lat":36.78667,"lng":-119.82851,"mortgage":3698},{"zip_code":93706,"Median":186300,"lat":36.65344,"lng":-119.90216,"mortgage":2295},{"zip_code":93710,"Median":281800,"lat":36.82335,"lng":-119.76251,"mortgage":3151},{"zip_code":93711,"Median":398800,"lat":36.83508,"lng":-119.83309,"mortgage":6077},{"zip_code":93720,"Median":370800,"lat":36.8606,"lng":-119.76228,"mortgage":6951},{"zip_code":93721,"Median":181500,"lat":36.73282,"lng":-119.78383,"mortgage":113},{"zip_code":93722,"Median":270900,"lat":36.80003,"lng":-119.87791,"mortgage":11832},{"zip_code":93723,"Median":374300,"lat":36.78693,"lng":-119.95271,"mortgage":2075},{"zip_code":93725,"Median":226200,"lat":36.62667,"lng":-119.73501,"mortgage":2615},{"zip_code":93726,"Median":214600,"lat":36.79374,"lng":-119.76161,"mortgage":3873},{"zip_code":93727,"Median":287000,"lat":36.75119,"lng":-119.69736,"mortgage":10562},{"zip_code":93728,"Median":210500,"lat":36.75729,"lng":-119.81816,"mortgage":1475},{"zip_code":93730,"Median":522200,"lat":36.90354,"lng":-119.75512,"mortgage":2246},{"zip_code":93737,"Median":387300,"lat":36.75358,"lng":-119.6456,"mortgage":1380},{"zip_code":93901,"Median":569700,"lat":36.64794,"lng":-121.63044,"mortgage":3349},{"zip_code":93905,"Median":444400,"lat":36.6849,"lng":-121.60562,"mortgage":4054},{"zip_code":93906,"Median":466900,"lat":36.72258,"lng":-121.63218,"mortgage":6591},{"zip_code":93907,"Median":566800,"lat":36.76643,"lng":-121.66816,"mortgage":3551},{"zip_code":93908,"Median":846200,"lat":36.62153,"lng":-121.60048,"mortgage":2393},{"zip_code":93920,"Median":1081500,"lat":36.03164,"lng":-121.52592,"mortgage":11},{"zip_code":93921,"Median":1646400,"lat":36.55359,"lng":-121.92259,"mortgage":160},{"zip_code":93923,"Median":1199000,"lat":36.40394,"lng":-121.79867,"mortgage":2558},{"zip_code":93924,"Median":987100,"lat":36.39489,"lng":-121.63406,"mortgage":1438},{"zip_code":93925,"Median":531300,"lat":36.60209,"lng":-121.42526,"mortgage":109},{"zip_code":93926,"Median":453700,"lat":36.52567,"lng":-121.3991,"mortgage":946},{"zip_code":93927,"Median":350400,"lat":36.26978,"lng":-121.38018,"mortgage":1614},{"zip_code":93930,"Median":336200,"lat":36.19924,"lng":-121.07282,"mortgage":1540},{"zip_code":93932,"Median":388100,"lat":36.00143,"lng":-121.05757,"mortgage":18},{"zip_code":93933,"Median":599700,"lat":36.67566,"lng":-121.78237,"mortgage":2541},{"zip_code":93940,"Median":861000,"lat":36.45294,"lng":-121.8498,"mortgage":4013},{"zip_code":93950,"Median":929200,"lat":36.61899,"lng":-121.92575,"mortgage":1854},{"zip_code":93953,"Median":1418400,"lat":36.58566,"lng":-121.94329,"mortgage":670},{"zip_code":93954,"Median":230800,"lat":36.16434,"lng":-120.92441,"mortgage":24},{"zip_code":93955,"Median":588100,"lat":36.62153,"lng":-121.79562,"mortgage":2710},{"zip_code":93960,"Median":432200,"lat":36.40489,"lng":-121.32121,"mortgage":1427},{"zip_code":93962,"Median":562500,"lat":36.62472,"lng":-121.64649,"mortgage":87},{"zip_code":94002,"Median":1678500,"lat":37.51366,"lng":-122.29853,"mortgage":4505},{"zip_code":94005,"Median":923800,"lat":37.6882,"lng":-122.40873,"mortgage":931},{"zip_code":94010,"Median":2000000,"lat":37.57306,"lng":-122.37828,"mortgage":7121},{"zip_code":94014,"Median":865400,"lat":37.6907,"lng":-122.44769,"mortgage":5315},{"zip_code":94015,"Median":932200,"lat":37.68121,"lng":-122.48074,"mortgage":8356},{"zip_code":94018,"Median":1244200,"lat":37.50603,"lng":-122.47321,"mortgage":782},{"zip_code":94019,"Median":1273400,"lat":37.44826,"lng":-122.4023,"mortgage":2635},{"zip_code":94020,"Median":838200,"lat":37.28473,"lng":-122.21969,"mortgage":409},{"zip_code":94022,"Median":2000000,"lat":37.35534,"lng":-122.14494,"mortgage":3689},{"zip_code":94024,"Median":2000000,"lat":37.35037,"lng":-122.09863,"mortgage":4419},{"zip_code":94025,"Median":2000000,"lat":37.45087,"lng":-122.1829,"mortgage":6210},{"zip_code":94027,"Median":2000000,"lat":37.45399,"lng":-122.20313,"mortgage":1078},{"zip_code":94028,"Median":2000000,"lat":37.37492,"lng":-122.21136,"mortgage":1165},{"zip_code":94030,"Median":1606700,"lat":37.59969,"lng":-122.40343,"mortgage":3237},{"zip_code":94037,"Median":1244300,"lat":37.55327,"lng":-122.49584,"mortgage":618},{"zip_code":94038,"Median":995800,"lat":37.52946,"lng":-122.4849,"mortgage":409},{"zip_code":94040,"Median":2000000,"lat":37.38034,"lng":-122.08531,"mortgage":3853},{"zip_code":94041,"Median":1804400,"lat":37.38822,"lng":-122.07529,"mortgage":1144},{"zip_code":94043,"Median":1341300,"lat":37.41188,"lng":-122.06892,"mortgage":4396},{"zip_code":94044,"Median":1012200,"lat":37.60544,"lng":-122.47993,"mortgage":6811},{"zip_code":94060,"Median":1012800,"lat":37.22297,"lng":-122.33572,"mortgage":135},{"zip_code":94061,"Median":1558300,"lat":37.46136,"lng":-122.23731,"mortgage":5101},{"zip_code":94062,"Median":2000000,"lat":37.42562,"lng":-122.29653,"mortgage":5187},{"zip_code":94063,"Median":1002400,"lat":37.49367,"lng":-122.20823,"mortgage":2371},{"zip_code":94065,"Median":1545800,"lat":37.53504,"lng":-122.24683,"mortgage":2193},{"zip_code":94066,"Median":1027400,"lat":37.62539,"lng":-122.43229,"mortgage":6436},{"zip_code":94070,"Median":1910300,"lat":37.49739,"lng":-122.27021,"mortgage":6249},{"zip_code":94074,"Median":1086500,"lat":37.32817,"lng":-122.34164,"mortgage":37},{"zip_code":94080,"Median":963700,"lat":37.65541,"lng":-122.42083,"mortgage":9357},{"zip_code":94085,"Median":1217000,"lat":37.38862,"lng":-122.01793,"mortgage":2723},{"zip_code":94086,"Median":1504000,"lat":37.37164,"lng":-122.02316,"mortgage":3965},{"zip_code":94087,"Median":1945100,"lat":37.35164,"lng":-122.03669,"mortgage":7307},{"zip_code":94089,"Median":338100,"lat":37.41192,"lng":-122.01441,"mortgage":2451},{"zip_code":94102,"Median":968000,"lat":37.77956,"lng":-122.41931,"mortgage":1165},{"zip_code":94103,"Median":960000,"lat":37.77299,"lng":-122.41136,"mortgage":2116},{"zip_code":94104,"Median":2000000,"lat":37.79144,"lng":-122.40211,"mortgage":17},{"zip_code":94105,"Median":1401000,"lat":37.79239,"lng":-122.39707,"mortgage":1952},{"zip_code":94107,"Median":1134600,"lat":37.76473,"lng":-122.39508,"mortgage":4168},{"zip_code":94108,"Median":1129100,"lat":37.79189,"lng":-122.40854,"mortgage":371},{"zip_code":94109,"Median":1171200,"lat":37.79334,"lng":-122.42138,"mortgage":3227},{"zip_code":94110,"Median":1233600,"lat":37.74975,"lng":-122.41528,"mortgage":7709},{"zip_code":94111,"Median":1183200,"lat":37.79847,"lng":-122.3998,"mortgage":333},{"zip_code":94112,"Median":1022100,"lat":37.7206,"lng":-122.44311,"mortgage":10058},{"zip_code":94114,"Median":1593400,"lat":37.75814,"lng":-122.43547,"mortgage":5326},{"zip_code":94115,"Median":1515600,"lat":37.78608,"lng":-122.43742,"mortgage":3018},{"zip_code":94116,"Median":1188000,"lat":37.74457,"lng":-122.48611,"mortgage":6508},{"zip_code":94117,"Median":1478600,"lat":37.77002,"lng":-122.44425,"mortgage":3656},{"zip_code":94118,"Median":1609400,"lat":37.7801,"lng":-122.46185,"mortgage":3824},{"zip_code":94121,"Median":1506400,"lat":37.77849,"lng":-122.49548,"mortgage":4401},{"zip_code":94122,"Median":1239600,"lat":37.76113,"lng":-122.48433,"mortgage":7171},{"zip_code":94123,"Median":2000000,"lat":37.80112,"lng":-122.43645,"mortgage":2373},{"zip_code":94124,"Median":873900,"lat":37.73204,"lng":-122.3858,"mortgage":3688},{"zip_code":94127,"Median":1572100,"lat":37.73642,"lng":-122.45961,"mortgage":3796},{"zip_code":94131,"Median":1458500,"lat":37.74569,"lng":-122.44243,"mortgage":4498},{"zip_code":94132,"Median":1171000,"lat":37.72219,"lng":-122.48475,"mortgage":2992},{"zip_code":94133,"Median":1393700,"lat":37.80193,"lng":-122.41092,"mortgage":1078},{"zip_code":94134,"Median":925900,"lat":37.71887,"lng":-122.41124,"mortgage":4518},{"zip_code":94158,"Median":1226700,"lat":37.77116,"lng":-122.39153,"mortgage":1337},{"zip_code":94301,"Median":2000000,"lat":37.44424,"lng":-122.14992,"mortgage":2087},{"zip_code":94303,"Median":1567000,"lat":37.45064,"lng":-122.11928,"mortgage":5552},{"zip_code":94304,"Median":2000000,"lat":37.39744,"lng":-122.16699,"mortgage":222},{"zip_code":94305,"Median":2000000,"lat":37.41623,"lng":-122.17069,"mortgage":536},{"zip_code":94306,"Median":2000000,"lat":37.41627,"lng":-122.13088,"mortgage":3482},{"zip_code":94401,"Median":944300,"lat":37.57445,"lng":-122.31942,"mortgage":4011},{"zip_code":94402,"Median":1882300,"lat":37.54035,"lng":-122.33388,"mortgage":4421},{"zip_code":94403,"Median":1499300,"lat":37.53844,"lng":-122.30454,"mortgage":6368},{"zip_code":94404,"Median":1404600,"lat":37.5562,"lng":-122.26905,"mortgage":5346},{"zip_code":94501,"Median":969500,"lat":37.77525,"lng":-122.27493,"mortgage":7061},{"zip_code":94502,"Median":978600,"lat":37.73686,"lng":-122.24114,"mortgage":2908},{"zip_code":94503,"Median":557800,"lat":38.19454,"lng":-122.23042,"mortgage":3167},{"zip_code":94505,"Median":674800,"lat":37.86638,"lng":-121.5868,"mortgage":3893},{"zip_code":94506,"Median":1380000,"lat":37.80862,"lng":-121.90498,"mortgage":6698},{"zip_code":94507,"Median":1799100,"lat":37.85429,"lng":-122.00664,"mortgage":3222},{"zip_code":94508,"Median":684400,"lat":38.57909,"lng":-122.44451,"mortgage":460},{"zip_code":94509,"Median":435600,"lat":37.99214,"lng":-121.8142,"mortgage":8835},{"zip_code":94510,"Median":628300,"lat":38.09756,"lng":-122.13189,"mortgage":5954},{"zip_code":94511,"Median":433300,"lat":38.02883,"lng":-121.64039,"mortgage":336},{"zip_code":94513,"Median":635600,"lat":37.92541,"lng":-121.68452,"mortgage":13422},{"zip_code":94514,"Median":711000,"lat":37.83071,"lng":-121.63392,"mortgage":277},{"zip_code":94515,"Median":731200,"lat":38.62449,"lng":-122.62503,"mortgage":818},{"zip_code":94516,"Median":685500,"lat":37.82748,"lng":-122.16629,"mortgage":26},{"zip_code":94517,"Median":815600,"lat":37.8926,"lng":-121.88252,"mortgage":2707},{"zip_code":94518,"Median":649100,"lat":37.95052,"lng":-122.02209,"mortgage":4993},{"zip_code":94519,"Median":608400,"lat":37.98881,"lng":-122.01275,"mortgage":3790},{"zip_code":94520,"Median":480300,"lat":37.99344,"lng":-122.03532,"mortgage":3428},{"zip_code":94521,"Median":649100,"lat":37.95293,"lng":-121.96971,"mortgage":8891},{"zip_code":94523,"Median":827200,"lat":37.95403,"lng":-122.07608,"mortgage":7000},{"zip_code":94525,"Median":591000,"lat":38.04811,"lng":-122.2292,"mortgage":560},{"zip_code":94526,"Median":1265000,"lat":37.81472,"lng":-121.98451,"mortgage":8049},{"zip_code":94528,"Median":2000000,"lat":37.84149,"lng":-121.95819,"mortgage":132},{"zip_code":94530,"Median":891700,"lat":37.92076,"lng":-122.30068,"mortgage":4028},{"zip_code":94531,"Median":528200,"lat":37.95665,"lng":-121.77777,"mortgage":7631},{"zip_code":94533,"Median":393700,"lat":38.28132,"lng":-122.00693,"mortgage":10018},{"zip_code":94534,"Median":589000,"lat":38.24112,"lng":-122.12142,"mortgage":7765},{"zip_code":94536,"Median":989600,"lat":37.57072,"lng":-121.98555,"mortgage":10626},{"zip_code":94538,"Median":888400,"lat":37.50653,"lng":-121.96361,"mortgage":7275},{"zip_code":94539,"Median":1548800,"lat":37.51635,"lng":-121.9119,"mortgage":9667},{"zip_code":94541,"Median":641200,"lat":37.67376,"lng":-122.08707,"mortgage":7536},{"zip_code":94542,"Median":884200,"lat":37.6553,"lng":-122.02584,"mortgage":2783},{"zip_code":94544,"Median":624800,"lat":37.63352,"lng":-122.05678,"mortgage":8353},{"zip_code":94545,"Median":664400,"lat":37.62957,"lng":-122.12048,"mortgage":5176},{"zip_code":94546,"Median":811300,"lat":37.73441,"lng":-122.09056,"mortgage":7818},{"zip_code":94547,"Median":590800,"lat":38.00637,"lng":-122.26117,"mortgage":5841},{"zip_code":94548,"Median":817500,"lat":37.97481,"lng":-121.65265,"mortgage":114},{"zip_code":94549,"Median":1547800,"lat":37.90133,"lng":-122.11933,"mortgage":5439},{"zip_code":94550,"Median":925400,"lat":37.51746,"lng":-121.59406,"mortgage":10010},{"zip_code":94551,"Median":774200,"lat":37.75902,"lng":-121.76026,"mortgage":7732},{"zip_code":94552,"Median":1056100,"lat":37.70456,"lng":-122.01359,"mortgage":2870},{"zip_code":94553,"Median":628400,"lat":37.97999,"lng":-122.15368,"mortgage":9854},{"zip_code":94555,"Median":1078400,"lat":37.55083,"lng":-122.08043,"mortgage":5913},{"zip_code":94556,"Median":1224100,"lat":37.83102,"lng":-122.10425,"mortgage":3199},{"zip_code":94558,"Median":693700,"lat":38.50846,"lng":-122.26497,"mortgage":10644},{"zip_code":94559,"Median":704900,"lat":38.25238,"lng":-122.29382,"mortgage":3544},{"zip_code":94560,"Median":870200,"lat":37.50771,"lng":-122.02523,"mortgage":7393},{"zip_code":94561,"Median":501200,"lat":37.99311,"lng":-121.69172,"mortgage":8008},{"zip_code":94563,"Median":1539900,"lat":37.88196,"lng":-122.19419,"mortgage":5031},{"zip_code":94564,"Median":590900,"lat":37.98896,"lng":-122.27018,"mortgage":3387},{"zip_code":94565,"Median":442300,"lat":38.00926,"lng":-121.92886,"mortgage":11862},{"zip_code":94566,"Median":1195200,"lat":37.65032,"lng":-121.85881,"mortgage":8369},{"zip_code":94567,"Median":383300,"lat":38.66342,"lng":-122.4349,"mortgage":89},{"zip_code":94568,"Median":983000,"lat":37.71596,"lng":-121.90113,"mortgage":11811},{"zip_code":94569,"Median":586300,"lat":38.04411,"lng":-122.19201,"mortgage":43},{"zip_code":94571,"Median":398900,"lat":38.1566,"lng":-121.7482,"mortgage":2616},{"zip_code":94572,"Median":546400,"lat":38.02392,"lng":-122.23285,"mortgage":1213},{"zip_code":94574,"Median":1295900,"lat":38.52742,"lng":-122.39261,"mortgage":1314},{"zip_code":94576,"Median":861100,"lat":38.54932,"lng":-122.47581,"mortgage":26},{"zip_code":94577,"Median":667600,"lat":37.71595,"lng":-122.16615,"mortgage":6555},{"zip_code":94578,"Median":633500,"lat":37.70675,"lng":-122.1256,"mortgage":3499},{"zip_code":94579,"Median":659600,"lat":37.68656,"lng":-122.15709,"mortgage":2985},{"zip_code":94580,"Median":649600,"lat":37.67803,"lng":-122.13334,"mortgage":4483},{"zip_code":94582,"Median":1153600,"lat":37.76357,"lng":-121.91469,"mortgage":9066},{"zip_code":94583,"Median":987300,"lat":37.77245,"lng":-121.99157,"mortgage":7242},{"zip_code":94585,"Median":419200,"lat":38.19061,"lng":-121.94216,"mortgage":4653},{"zip_code":94586,"Median":1166700,"lat":37.57327,"lng":-121.85472,"mortgage":161},{"zip_code":94587,"Median":860300,"lat":37.59142,"lng":-122.06993,"mortgage":9934},{"zip_code":94588,"Median":1050600,"lat":37.73801,"lng":-121.88178,"mortgage":5989},{"zip_code":94589,"Median":372000,"lat":38.14162,"lng":-122.24596,"mortgage":4249},{"zip_code":94590,"Median":381400,"lat":38.09546,"lng":-122.24986,"mortgage":3848},{"zip_code":94591,"Median":482700,"lat":38.12702,"lng":-122.19635,"mortgage":10001},{"zip_code":94592,"Median":653700,"lat":38.12009,"lng":-122.3117,"mortgage":280},{"zip_code":94595,"Median":673500,"lat":37.87206,"lng":-122.06892,"mortgage":3362},{"zip_code":94596,"Median":1081800,"lat":37.88902,"lng":-122.03676,"mortgage":3221},{"zip_code":94597,"Median":806800,"lat":37.91768,"lng":-122.0718,"mortgage":3805},{"zip_code":94598,"Median":1050800,"lat":37.89238,"lng":-121.98283,"mortgage":5417},{"zip_code":94599,"Median":758600,"lat":38.41012,"lng":-122.37365,"mortgage":381},{"zip_code":94601,"Median":581800,"lat":37.77684,"lng":-122.21822,"mortgage":3736},{"zip_code":94602,"Median":919900,"lat":37.80517,"lng":-122.20422,"mortgage":5183},{"zip_code":94603,"Median":447000,"lat":37.73923,"lng":-122.17554,"mortgage":3093},{"zip_code":94605,"Median":695000,"lat":37.76062,"lng":-122.14903,"mortgage":7945},{"zip_code":94606,"Median":643100,"lat":37.79179,"lng":-122.24455,"mortgage":1737},{"zip_code":94607,"Median":640800,"lat":37.80721,"lng":-122.30024,"mortgage":2767},{"zip_code":94608,"Median":691300,"lat":37.83611,"lng":-122.28621,"mortgage":3710},{"zip_code":94609,"Median":937000,"lat":37.83476,"lng":-122.2642,"mortgage":2616},{"zip_code":94610,"Median":1125700,"lat":37.81229,"lng":-122.24048,"mortgage":4207},{"zip_code":94611,"Median":1199600,"lat":37.83191,"lng":-122.21592,"mortgage":7269},{"zip_code":94612,"Median":848500,"lat":37.80789,"lng":-122.2662,"mortgage":737},{"zip_code":94618,"Median":1440300,"lat":37.8442,"lng":-122.23868,"mortgage":3206},{"zip_code":94619,"Median":790500,"lat":37.79262,"lng":-122.16001,"mortgage":4849},{"zip_code":94621,"Median":445600,"lat":37.7379,"lng":-122.20794,"mortgage":2410},{"zip_code":94702,"Median":958700,"lat":37.86619,"lng":-122.28634,"mortgage":2401},{"zip_code":94703,"Median":1061200,"lat":37.86397,"lng":-122.27573,"mortgage":2319},{"zip_code":94704,"Median":787300,"lat":37.8664,"lng":-122.26088,"mortgage":386},{"zip_code":94705,"Median":1420900,"lat":37.86523,"lng":-122.2384,"mortgage":2071},{"zip_code":94706,"Median":964500,"lat":37.88969,"lng":-122.29581,"mortgage":2604},{"zip_code":94707,"Median":1301800,"lat":37.89843,"lng":-122.27917,"mortgage":2775},{"zip_code":94708,"Median":1208400,"lat":37.90276,"lng":-122.26202,"mortgage":2449},{"zip_code":94709,"Median":1001900,"lat":37.87835,"lng":-122.26613,"mortgage":885},{"zip_code":94710,"Median":898500,"lat":37.86705,"lng":-122.303,"mortgage":825},{"zip_code":94720,"Median":1337500,"lat":37.87185,"lng":-122.25226,"mortgage":20},{"zip_code":94801,"Median":475100,"lat":37.95217,"lng":-122.38025,"mortgage":3160},{"zip_code":94803,"Median":614700,"lat":37.95683,"lng":-122.28235,"mortgage":4784},{"zip_code":94804,"Median":526600,"lat":37.92074,"lng":-122.34204,"mortgage":5180},{"zip_code":94805,"Median":613400,"lat":37.94215,"lng":-122.32364,"mortgage":2615},{"zip_code":94806,"Median":479200,"lat":37.97811,"lng":-122.33618,"mortgage":7039},{"zip_code":94901,"Median":1136000,"lat":37.98053,"lng":-122.50249,"mortgage":5730},{"zip_code":94903,"Median":940800,"lat":38.02485,"lng":-122.5522,"mortgage":5554},{"zip_code":94904,"Median":1635600,"lat":37.94841,"lng":-122.55288,"mortgage":2476},{"zip_code":94920,"Median":2000000,"lat":37.88732,"lng":-122.46549,"mortgage":2419},{"zip_code":94922,"Median":854200,"lat":38.35683,"lng":-122.95098,"mortgage":47},{"zip_code":94923,"Median":1077700,"lat":38.33588,"lng":-123.02647,"mortgage":306},{"zip_code":94924,"Median":1119300,"lat":37.95411,"lng":-122.73171,"mortgage":183},{"zip_code":94925,"Median":1372500,"lat":37.92386,"lng":-122.5132,"mortgage":1935},{"zip_code":94928,"Median":546100,"lat":38.3459,"lng":-122.6935,"mortgage":5859},{"zip_code":94929,"Median":1265000,"lat":38.25444,"lng":-122.96243,"mortgage":10},{"zip_code":94930,"Median":927100,"lat":37.97048,"lng":-122.61108,"mortgage":1774},{"zip_code":94931,"Median":663100,"lat":38.32229,"lng":-122.71497,"mortgage":1546},{"zip_code":94933,"Median":879500,"lat":38.01753,"lng":-122.68814,"mortgage":151},{"zip_code":94937,"Median":1007400,"lat":38.09466,"lng":-122.92719,"mortgage":146},{"zip_code":94938,"Median":933600,"lat":38.03024,"lng":-122.72953,"mortgage":124},{"zip_code":94939,"Median":1697200,"lat":37.93725,"lng":-122.53518,"mortgage":1196},{"zip_code":94940,"Median":886400,"lat":38.15754,"lng":-122.86376,"mortgage":44},{"zip_code":94941,"Median":1582800,"lat":37.92562,"lng":-122.60083,"mortgage":5953},{"zip_code":94945,"Median":909300,"lat":38.1258,"lng":-122.55443,"mortgage":3511},{"zip_code":94946,"Median":1736600,"lat":38.07176,"lng":-122.68785,"mortgage":99},{"zip_code":94947,"Median":851100,"lat":38.10705,"lng":-122.62813,"mortgage":4792},{"zip_code":94949,"Median":829100,"lat":38.06576,"lng":-122.53172,"mortgage":3224},{"zip_code":94951,"Median":955000,"lat":38.32252,"lng":-122.64492,"mortgage":718},{"zip_code":94952,"Median":866200,"lat":38.23007,"lng":-122.76338,"mortgage":5689},{"zip_code":94954,"Median":661700,"lat":38.24624,"lng":-122.56627,"mortgage":6303},{"zip_code":94956,"Median":1299500,"lat":38.0476,"lng":-122.81046,"mortgage":147},{"zip_code":94957,"Median":2000000,"lat":37.96343,"lng":-122.56174,"mortgage":343},{"zip_code":94960,"Median":1308500,"lat":37.99707,"lng":-122.57838,"mortgage":3238},{"zip_code":94963,"Median":928600,"lat":38.00765,"lng":-122.66484,"mortgage":29},{"zip_code":94965,"Median":1173700,"lat":37.85263,"lng":-122.52699,"mortgage":2066},{"zip_code":94970,"Median":1593800,"lat":37.91694,"lng":-122.65553,"mortgage":105},{"zip_code":94971,"Median":845200,"lat":38.23724,"lng":-122.89006,"mortgage":71},{"zip_code":94973,"Median":957400,"lat":38.01259,"lng":-122.63947,"mortgage":380},{"zip_code":95002,"Median":659100,"lat":37.44075,"lng":-122.00047,"mortgage":211},{"zip_code":95003,"Median":935600,"lat":37.0089,"lng":-121.87775,"mortgage":5573},{"zip_code":95004,"Median":780500,"lat":36.86818,"lng":-121.63237,"mortgage":705},{"zip_code":95005,"Median":804800,"lat":37.09835,"lng":-122.08931,"mortgage":1137},{"zip_code":95006,"Median":646300,"lat":37.17129,"lng":-122.151,"mortgage":2063},{"zip_code":95007,"Median":594800,"lat":37.11019,"lng":-122.11434,"mortgage":170},{"zip_code":95008,"Median":1230900,"lat":37.27977,"lng":-121.95481,"mortgage":6455},{"zip_code":95010,"Median":760500,"lat":36.97721,"lng":-121.95466,"mortgage":1122},{"zip_code":95012,"Median":486000,"lat":36.78373,"lng":-121.74164,"mortgage":940},{"zip_code":95014,"Median":2000000,"lat":37.30827,"lng":-122.07981,"mortgage":8049},{"zip_code":95017,"Median":908100,"lat":37.10529,"lng":-122.22913,"mortgage":56},{"zip_code":95018,"Median":657200,"lat":37.08027,"lng":-122.05824,"mortgage":1452},{"zip_code":95019,"Median":471700,"lat":36.93575,"lng":-121.78458,"mortgage":459},{"zip_code":95020,"Median":815900,"lat":37.01461,"lng":-121.55718,"mortgage":10095},{"zip_code":95023,"Median":609800,"lat":36.92113,"lng":-121.36117,"mortgage":8582},{"zip_code":95030,"Median":2000000,"lat":37.22168,"lng":-121.98326,"mortgage":2907},{"zip_code":95032,"Median":1726700,"lat":37.20859,"lng":-121.92359,"mortgage":4595},{"zip_code":95033,"Median":1160400,"lat":37.15701,"lng":-121.97771,"mortgage":2306},{"zip_code":95035,"Median":995200,"lat":37.44319,"lng":-121.87632,"mortgage":10988},{"zip_code":95037,"Median":954600,"lat":37.13213,"lng":-121.67886,"mortgage":9456},{"zip_code":95039,"Median":227500,"lat":36.81515,"lng":-121.7779,"mortgage":48},{"zip_code":95041,"Median":908700,"lat":37.05052,"lng":-122.05828,"mortgage":138},{"zip_code":95043,"Median":875000,"lat":36.51652,"lng":-120.97677,"mortgage":87},{"zip_code":95045,"Median":726500,"lat":36.83281,"lng":-121.52576,"mortgage":651},{"zip_code":95046,"Median":1092500,"lat":37.09576,"lng":-121.59649,"mortgage":835},{"zip_code":95050,"Median":1140200,"lat":37.3504,"lng":-121.95238,"mortgage":4058},{"zip_code":95051,"Median":1253100,"lat":37.3483,"lng":-121.98444,"mortgage":7081},{"zip_code":95054,"Median":1195700,"lat":37.39308,"lng":-121.96483,"mortgage":2541},{"zip_code":95060,"Median":971100,"lat":37.01352,"lng":-122.10176,"mortgage":6320},{"zip_code":95062,"Median":840100,"lat":36.97279,"lng":-121.99008,"mortgage":5286},{"zip_code":95064,"Median":451300,"lat":36.99158,"lng":-122.05886,"mortgage":135},{"zip_code":95065,"Median":931400,"lat":37.03229,"lng":-121.98444,"mortgage":1285},{"zip_code":95066,"Median":920600,"lat":37.0672,"lng":-122.01453,"mortgage":3220},{"zip_code":95070,"Median":2000000,"lat":37.25624,"lng":-122.05151,"mortgage":6344},{"zip_code":95073,"Median":842800,"lat":37.04068,"lng":-121.93174,"mortgage":1894},{"zip_code":95075,"Median":809000,"lat":36.80112,"lng":-121.19258,"mortgage":92},{"zip_code":95076,"Median":626100,"lat":36.94029,"lng":-121.75089,"mortgage":9260},{"zip_code":95110,"Median":739600,"lat":37.34656,"lng":-121.9097,"mortgage":2203},{"zip_code":95111,"Median":661700,"lat":37.28401,"lng":-121.82731,"mortgage":6093},{"zip_code":95112,"Median":823900,"lat":37.34461,"lng":-121.88346,"mortgage":4360},{"zip_code":95113,"Median":872000,"lat":37.3339,"lng":-121.8905,"mortgage":149},{"zip_code":95116,"Median":687900,"lat":37.35043,"lng":-121.85255,"mortgage":3731},{"zip_code":95117,"Median":1141000,"lat":37.31008,"lng":-121.96225,"mortgage":2514},{"zip_code":95118,"Median":1111900,"lat":37.25589,"lng":-121.88991,"mortgage":5304},{"zip_code":95119,"Median":950700,"lat":37.22756,"lng":-121.79077,"mortgage":1980},{"zip_code":95120,"Median":1546400,"lat":37.18428,"lng":-121.83658,"mortgage":7985},{"zip_code":95121,"Median":838900,"lat":37.30463,"lng":-121.80981,"mortgage":4986},{"zip_code":95122,"Median":674500,"lat":37.32925,"lng":-121.83481,"mortgage":3934},{"zip_code":95123,"Median":889800,"lat":37.24479,"lng":-121.83306,"mortgage":10580},{"zip_code":95124,"Median":1259000,"lat":37.25684,"lng":-121.92286,"mortgage":9379},{"zip_code":95125,"Median":1300600,"lat":37.29554,"lng":-121.89408,"mortgage":9333},{"zip_code":95126,"Median":1011900,"lat":37.32687,"lng":-121.91677,"mortgage":4000},{"zip_code":95127,"Median":806400,"lat":37.37453,"lng":-121.78733,"mortgage":7582},{"zip_code":95128,"Median":1054000,"lat":37.31579,"lng":-121.93647,"mortgage":4372},{"zip_code":95129,"Median":1641700,"lat":37.30597,"lng":-122.00072,"mortgage":5732},{"zip_code":95130,"Median":1409500,"lat":37.28803,"lng":-121.98146,"mortgage":2054},{"zip_code":95131,"Median":976300,"lat":37.38729,"lng":-121.89793,"mortgage":3955},{"zip_code":95132,"Median":1072200,"lat":37.41994,"lng":-121.79059,"mortgage":5988},{"zip_code":95133,"Median":869200,"lat":37.37171,"lng":-121.86057,"mortgage":3882},{"zip_code":95134,"Median":379800,"lat":37.43003,"lng":-121.94528,"mortgage":1038},{"zip_code":95135,"Median":1158400,"lat":37.22285,"lng":-121.55913,"mortgage":4245},{"zip_code":95136,"Median":897500,"lat":37.27192,"lng":-121.85237,"mortgage":6316},{"zip_code":95138,"Median":1129600,"lat":37.2462,"lng":-121.73287,"mortgage":3740},{"zip_code":95139,"Median":904600,"lat":37.22489,"lng":-121.76393,"mortgage":1211},{"zip_code":95140,"Median":1166700,"lat":37.3483,"lng":-121.64085,"mortgage":41},{"zip_code":95148,"Median":998600,"lat":37.33252,"lng":-121.78142,"mortgage":6794},{"zip_code":95202,"Median":265400,"lat":37.95968,"lng":-121.28772,"mortgage":108},{"zip_code":95203,"Median":268100,"lat":37.95237,"lng":-121.33098,"mortgage":1259},{"zip_code":95204,"Median":286300,"lat":37.97403,"lng":-121.31906,"mortgage":4451},{"zip_code":95205,"Median":225400,"lat":37.96425,"lng":-121.25955,"mortgage":2711},{"zip_code":95206,"Median":291800,"lat":37.8961,"lng":-121.41051,"mortgage":6928},{"zip_code":95207,"Median":318500,"lat":38.00242,"lng":-121.325,"mortgage":4584},{"zip_code":95209,"Median":367400,"lat":38.04717,"lng":-121.35121,"mortgage":6799},{"zip_code":95210,"Median":259000,"lat":38.03215,"lng":-121.29782,"mortgage":3849},{"zip_code":95212,"Median":401500,"lat":38.04897,"lng":-121.22684,"mortgage":3732},{"zip_code":95215,"Median":303500,"lat":37.9444,"lng":-121.15276,"mortgage":2480},{"zip_code":95219,"Median":436900,"lat":38.0207,"lng":-121.51584,"mortgage":4351},{"zip_code":95220,"Median":642500,"lat":38.19779,"lng":-121.23603,"mortgage":1327},{"zip_code":95222,"Median":399200,"lat":38.06127,"lng":-120.61791,"mortgage":731},{"zip_code":95223,"Median":360600,"lat":38.4644,"lng":-119.85939,"mortgage":619},{"zip_code":95224,"Median":327800,"lat":38.22706,"lng":-120.32562,"mortgage":18},{"zip_code":95225,"Median":594900,"lat":38.20399,"lng":-120.86488,"mortgage":52},{"zip_code":95227,"Median":877000,"lat":38.20678,"lng":-121.04615,"mortgage":131},{"zip_code":95228,"Median":350500,"lat":37.94669,"lng":-120.68067,"mortgage":1053},{"zip_code":95230,"Median":591900,"lat":37.97361,"lng":-120.86492,"mortgage":89},{"zip_code":95231,"Median":341300,"lat":37.87331,"lng":-121.29272,"mortgage":211},{"zip_code":95233,"Median":385200,"lat":38.18622,"lng":-120.36859,"mortgage":70},{"zip_code":95236,"Median":501400,"lat":38.04218,"lng":-121.03176,"mortgage":533},{"zip_code":95237,"Median":372700,"lat":38.15953,"lng":-121.14845,"mortgage":655},{"zip_code":95240,"Median":352400,"lat":38.1177,"lng":-121.1627,"mortgage":5334},{"zip_code":95242,"Median":440100,"lat":38.13204,"lng":-121.38875,"mortgage":4243},{"zip_code":95245,"Median":383800,"lat":38.30189,"lng":-120.61975,"mortgage":524},{"zip_code":95246,"Median":313000,"lat":38.23662,"lng":-120.49589,"mortgage":281},{"zip_code":95247,"Median":357500,"lat":38.14264,"lng":-120.44359,"mortgage":551},{"zip_code":95249,"Median":332300,"lat":38.18986,"lng":-120.61784,"mortgage":598},{"zip_code":95251,"Median":286400,"lat":38.08024,"lng":-120.45769,"mortgage":188},{"zip_code":95252,"Median":360200,"lat":38.15871,"lng":-120.84214,"mortgage":2869},{"zip_code":95254,"Median":374400,"lat":38.20323,"lng":-120.95857,"mortgage":123},{"zip_code":95255,"Median":231500,"lat":38.42055,"lng":-120.47506,"mortgage":227},{"zip_code":95257,"Median":281900,"lat":38.38068,"lng":-120.45255,"mortgage":32},{"zip_code":95258,"Median":479900,"lat":38.16811,"lng":-121.31011,"mortgage":858},{"zip_code":95301,"Median":288800,"lat":37.30634,"lng":-120.65119,"mortgage":4867},{"zip_code":95303,"Median":592600,"lat":37.4714,"lng":-120.67744,"mortgage":103},{"zip_code":95304,"Median":692400,"lat":37.6773,"lng":-121.3948,"mortgage":2087},{"zip_code":95306,"Median":283300,"lat":37.36015,"lng":-120.11581,"mortgage":130},{"zip_code":95307,"Median":313000,"lat":37.55582,"lng":-120.95385,"mortgage":4806},{"zip_code":95310,"Median":379500,"lat":38.09944,"lng":-120.36171,"mortgage":264},{"zip_code":95311,"Median":252400,"lat":37.70443,"lng":-120.08344,"mortgage":490},{"zip_code":95312,"Median":215000,"lat":37.42107,"lng":-120.65295,"mortgage":19},{"zip_code":95313,"Median":494000,"lat":37.43511,"lng":-121.03769,"mortgage":112},{"zip_code":95315,"Median":273000,"lat":37.42243,"lng":-120.7733,"mortgage":1518},{"zip_code":95316,"Median":375000,"lat":37.54613,"lng":-120.69212,"mortgage":1414},{"zip_code":95317,"Median":425000,"lat":37.12947,"lng":-120.5074,"mortgage":24},{"zip_code":95318,"Median":241500,"lat":37.66618,"lng":-119.8064,"mortgage":64},{"zip_code":95319,"Median":194700,"lat":37.6309,"lng":-120.87728,"mortgage":111},{"zip_code":95320,"Median":448000,"lat":37.82453,"lng":-121.01545,"mortgage":1769},{"zip_code":95321,"Median":330900,"lat":37.97719,"lng":-119.75012,"mortgage":838},{"zip_code":95322,"Median":354500,"lat":37.17622,"lng":-121.01861,"mortgage":1275},{"zip_code":95323,"Median":451400,"lat":37.60881,"lng":-120.68464,"mortgage":208},{"zip_code":95324,"Median":313200,"lat":37.39452,"lng":-120.89605,"mortgage":783},{"zip_code":95326,"Median":366500,"lat":37.58998,"lng":-120.8531,"mortgage":1543},{"zip_code":95327,"Median":271800,"lat":37.84912,"lng":-120.4858,"mortgage":873},{"zip_code":95328,"Median":306000,"lat":37.55797,"lng":-120.90932,"mortgage":404},{"zip_code":95329,"Median":284400,"lat":37.67726,"lng":-120.41363,"mortgage":631},{"zip_code":95330,"Median":431400,"lat":37.8117,"lng":-121.31331,"mortgage":4483},{"zip_code":95333,"Median":274600,"lat":37.2447,"lng":-120.24277,"mortgage":270},{"zip_code":95334,"Median":246500,"lat":37.34756,"lng":-120.74624,"mortgage":1158},{"zip_code":95336,"Median":398100,"lat":37.83351,"lng":-121.1988,"mortgage":6976},{"zip_code":95337,"Median":466500,"lat":37.74171,"lng":-121.23834,"mortgage":6714},{"zip_code":95338,"Median":320800,"lat":37.50911,"lng":-119.98659,"mortgage":1678},{"zip_code":95340,"Median":300400,"lat":37.34128,"lng":-120.40658,"mortgage":4130},{"zip_code":95341,"Median":232400,"lat":37.23037,"lng":-120.50715,"mortgage":2592},{"zip_code":95345,"Median":299500,"lat":37.58784,"lng":-119.96408,"mortgage":52},{"zip_code":95346,"Median":375600,"lat":38.07045,"lng":-120.17291,"mortgage":287},{"zip_code":95348,"Median":273400,"lat":37.41525,"lng":-120.4979,"mortgage":2541},{"zip_code":95350,"Median":309800,"lat":37.67175,"lng":-121.00732,"mortgage":6173},{"zip_code":95351,"Median":241800,"lat":37.6236,"lng":-120.99828,"mortgage":4303},{"zip_code":95354,"Median":280500,"lat":37.63849,"lng":-120.96428,"mortgage":3022},{"zip_code":95355,"Median":359200,"lat":37.6727,"lng":-120.94717,"mortgage":8535},{"zip_code":95356,"Median":389900,"lat":37.71945,"lng":-121.02786,"mortgage":4797},{"zip_code":95357,"Median":340300,"lat":37.66985,"lng":-120.87924,"mortgage":1872},{"zip_code":95358,"Median":319900,"lat":37.61578,"lng":-121.10059,"mortgage":3121},{"zip_code":95360,"Median":298300,"lat":37.32918,"lng":-121.03827,"mortgage":2113},{"zip_code":95361,"Median":407700,"lat":37.79342,"lng":-120.77654,"mortgage":5436},{"zip_code":95363,"Median":360300,"lat":37.37251,"lng":-121.27192,"mortgage":3994},{"zip_code":95365,"Median":183900,"lat":37.3012,"lng":-120.33152,"mortgage":415},{"zip_code":95366,"Median":522100,"lat":37.76223,"lng":-121.12574,"mortgage":3403},{"zip_code":95367,"Median":344800,"lat":37.73089,"lng":-120.94669,"mortgage":3610},{"zip_code":95368,"Median":349000,"lat":37.71544,"lng":-121.09047,"mortgage":2631},{"zip_code":95369,"Median":339200,"lat":37.52435,"lng":-120.41301,"mortgage":112},{"zip_code":95370,"Median":342700,"lat":37.98484,"lng":-120.34515,"mortgage":5163},{"zip_code":95372,"Median":317000,"lat":37.98927,"lng":-120.26272,"mortgage":426},{"zip_code":95374,"Median":357300,"lat":37.31636,"lng":-120.85683,"mortgage":108},{"zip_code":95376,"Median":454200,"lat":37.73678,"lng":-121.43404,"mortgage":7922},{"zip_code":95377,"Median":594900,"lat":37.65293,"lng":-121.49598,"mortgage":5816},{"zip_code":95379,"Median":319000,"lat":37.96174,"lng":-120.21635,"mortgage":759},{"zip_code":95380,"Median":319900,"lat":37.47226,"lng":-120.86978,"mortgage":4339},{"zip_code":95382,"Median":374600,"lat":37.52831,"lng":-120.85214,"mortgage":5909},{"zip_code":95383,"Median":364200,"lat":38.09534,"lng":-120.22602,"mortgage":1001},{"zip_code":95386,"Median":323200,"lat":37.67391,"lng":-120.63045,"mortgage":1354},{"zip_code":95387,"Median":445100,"lat":37.55429,"lng":-121.2451,"mortgage":79},{"zip_code":95388,"Median":231700,"lat":37.42171,"lng":-120.59715,"mortgage":1365},{"zip_code":95389,"Median":699100,"lat":37.73784,"lng":-119.52556,"mortgage":21},{"zip_code":95391,"Median":634300,"lat":37.76952,"lng":-121.5912,"mortgage":3456},{"zip_code":95401,"Median":541300,"lat":38.44922,"lng":-122.79307,"mortgage":5176},{"zip_code":95403,"Median":588800,"lat":38.50326,"lng":-122.75358,"mortgage":6038},{"zip_code":95404,"Median":710100,"lat":38.46488,"lng":-122.65709,"mortgage":6246},{"zip_code":95405,"Median":648800,"lat":38.43926,"lng":-122.66908,"mortgage":3670},{"zip_code":95407,"Median":506600,"lat":38.39465,"lng":-122.74591,"mortgage":4740},{"zip_code":95409,"Median":665600,"lat":38.46116,"lng":-122.60425,"mortgage":4625},{"zip_code":95410,"Median":644700,"lat":39.21616,"lng":-123.70012,"mortgage":188},{"zip_code":95415,"Median":542200,"lat":39.0205,"lng":-123.36751,"mortgage":58},{"zip_code":95419,"Median":601300,"lat":38.42336,"lng":-122.9582,"mortgage":40},{"zip_code":95421,"Median":571400,"lat":38.58276,"lng":-123.18037,"mortgage":276},{"zip_code":95422,"Median":156400,"lat":38.97829,"lng":-122.6423,"mortgage":2042},{"zip_code":95423,"Median":223600,"lat":39.06749,"lng":-122.62753,"mortgage":487},{"zip_code":95425,"Median":556700,"lat":38.81792,"lng":-123.02566,"mortgage":2239},{"zip_code":95426,"Median":260400,"lat":38.83449,"lng":-122.7361,"mortgage":197},{"zip_code":95427,"Median":699700,"lat":39.25326,"lng":-123.56932,"mortgage":22},{"zip_code":95428,"Median":301300,"lat":39.82489,"lng":-123.18126,"mortgage":212},{"zip_code":95429,"Median":336200,"lat":39.73292,"lng":-123.34841,"mortgage":23},{"zip_code":95432,"Median":623900,"lat":39.1083,"lng":-123.63829,"mortgage":79},{"zip_code":95436,"Median":578800,"lat":38.49108,"lng":-122.91425,"mortgage":1302},{"zip_code":95437,"Median":446400,"lat":39.44535,"lng":-123.69402,"mortgage":2150},{"zip_code":95439,"Median":742100,"lat":38.49055,"lng":-122.77591,"mortgage":68},{"zip_code":95441,"Median":952800,"lat":38.73775,"lng":-123.0354,"mortgage":256},{"zip_code":95442,"Median":1177600,"lat":38.3785,"lng":-122.51549,"mortgage":392},{"zip_code":95444,"Median":680000,"lat":38.43261,"lng":-122.86922,"mortgage":61},{"zip_code":95445,"Median":585200,"lat":38.83762,"lng":-123.49404,"mortgage":325},{"zip_code":95446,"Median":506700,"lat":38.52525,"lng":-123.00423,"mortgage":1059},{"zip_code":95448,"Median":919400,"lat":38.62309,"lng":-122.89089,"mortgage":2710},{"zip_code":95449,"Median":465000,"lat":38.94331,"lng":-123.09653,"mortgage":140},{"zip_code":95450,"Median":631000,"lat":38.5229,"lng":-123.21508,"mortgage":27},{"zip_code":95451,"Median":285000,"lat":38.9388,"lng":-122.80484,"mortgage":1875},{"zip_code":95452,"Median":915600,"lat":38.42969,"lng":-122.5362,"mortgage":258},{"zip_code":95453,"Median":342500,"lat":39.04346,"lng":-122.93918,"mortgage":1961},{"zip_code":95454,"Median":371700,"lat":39.78063,"lng":-123.51631,"mortgage":201},{"zip_code":95456,"Median":410000,"lat":39.25851,"lng":-123.74585,"mortgage":56},{"zip_code":95457,"Median":332800,"lat":38.87967,"lng":-122.52753,"mortgage":639},{"zip_code":95458,"Median":234500,"lat":39.11667,"lng":-122.78204,"mortgage":551},{"zip_code":95459,"Median":539800,"lat":38.99068,"lng":-123.62627,"mortgage":119},{"zip_code":95460,"Median":566400,"lat":39.30386,"lng":-123.73737,"mortgage":362},{"zip_code":95461,"Median":315900,"lat":38.762,"lng":-122.59314,"mortgage":381},{"zip_code":95462,"Median":562500,"lat":38.47263,"lng":-123.02064,"mortgage":255},{"zip_code":95463,"Median":462500,"lat":39.18957,"lng":-123.58059,"mortgage":28},{"zip_code":95464,"Median":127500,"lat":39.12736,"lng":-122.84733,"mortgage":214},{"zip_code":95465,"Median":957300,"lat":38.40556,"lng":-123.01963,"mortgage":292},{"zip_code":95466,"Median":583300,"lat":39.08868,"lng":-123.51058,"mortgage":62},{"zip_code":95467,"Median":338300,"lat":38.80453,"lng":-122.54948,"mortgage":1264},{"zip_code":95468,"Median":494100,"lat":38.9094,"lng":-123.60372,"mortgage":161},{"zip_code":95469,"Median":485000,"lat":39.38853,"lng":-123.05972,"mortgage":190},{"zip_code":95470,"Median":495100,"lat":39.30019,"lng":-123.22984,"mortgage":869},{"zip_code":95471,"Median":461700,"lat":38.53218,"lng":-122.97362,"mortgage":185},{"zip_code":95472,"Median":890700,"lat":38.39738,"lng":-122.86668,"mortgage":5541},{"zip_code":95476,"Median":767900,"lat":38.25531,"lng":-122.46055,"mortgage":6175},{"zip_code":95482,"Median":402700,"lat":39.1618,"lng":-123.23925,"mortgage":3418},{"zip_code":95485,"Median":299100,"lat":39.20828,"lng":-122.9259,"mortgage":436},{"zip_code":95490,"Median":337600,"lat":39.4883,"lng":-123.34725,"mortgage":1699},{"zip_code":95492,"Median":652800,"lat":38.53052,"lng":-122.81254,"mortgage":5599},{"zip_code":95493,"Median":600000,"lat":39.20241,"lng":-122.97948,"mortgage":32},{"zip_code":95494,"Median":634600,"lat":38.89646,"lng":-123.34324,"mortgage":19},{"zip_code":95497,"Median":943200,"lat":38.71976,"lng":-123.45601,"mortgage":223},{"zip_code":95501,"Median":299400,"lat":40.80435,"lng":-124.14034,"mortgage":2700},{"zip_code":95503,"Median":337600,"lat":40.72406,"lng":-124.09178,"mortgage":3750},{"zip_code":95511,"Median":410900,"lat":40.16975,"lng":-123.59539,"mortgage":0},{"zip_code":95519,"Median":352700,"lat":40.95833,"lng":-124.04983,"mortgage":2879},{"zip_code":95521,"Median":379000,"lat":40.84586,"lng":-124.04745,"mortgage":1758},{"zip_code":95524,"Median":484900,"lat":40.82346,"lng":-124.05271,"mortgage":308},{"zip_code":95525,"Median":388200,"lat":40.94845,"lng":-123.82629,"mortgage":191},{"zip_code":95526,"Median":262100,"lat":40.44705,"lng":-123.6628,"mortgage":38},{"zip_code":95527,"Median":272700,"lat":40.93593,"lng":-123.41966,"mortgage":74},{"zip_code":95528,"Median":383900,"lat":40.4936,"lng":-123.92393,"mortgage":235},{"zip_code":95531,"Median":236100,"lat":41.79288,"lng":-124.00473,"mortgage":2468},{"zip_code":95536,"Median":443500,"lat":40.51069,"lng":-124.26547,"mortgage":332},{"zip_code":95538,"Median":258500,"lat":41.86833,"lng":-124.15433,"mortgage":149},{"zip_code":95540,"Median":313500,"lat":40.56671,"lng":-124.12651,"mortgage":2230},{"zip_code":95542,"Median":386700,"lat":40.08074,"lng":-123.77369,"mortgage":298},{"zip_code":95545,"Median":469700,"lat":40.26159,"lng":-124.08599,"mortgage":3},{"zip_code":95546,"Median":257500,"lat":41.18777,"lng":-123.74535,"mortgage":197},{"zip_code":95547,"Median":470800,"lat":40.56952,"lng":-124.07751,"mortgage":245},{"zip_code":95548,"Median":200500,"lat":41.58633,"lng":-124.05859,"mortgage":65},{"zip_code":95549,"Median":536500,"lat":40.65838,"lng":-123.89485,"mortgage":182},{"zip_code":95550,"Median":750000,"lat":40.77695,"lng":-123.82951,"mortgage":5},{"zip_code":95551,"Median":391100,"lat":40.66977,"lng":-124.21961,"mortgage":110},{"zip_code":95552,"Median":246400,"lat":40.34899,"lng":-123.42248,"mortgage":39},{"zip_code":95554,"Median":429200,"lat":40.27573,"lng":-123.78414,"mortgage":15},{"zip_code":95555,"Median":325000,"lat":41.29519,"lng":-123.97774,"mortgage":22},{"zip_code":95556,"Median":337600,"lat":41.31444,"lng":-123.59043,"mortgage":34},{"zip_code":95558,"Median":708300,"lat":40.32673,"lng":-124.24017,"mortgage":37},{"zip_code":95560,"Median":341200,"lat":40.14606,"lng":-123.83816,"mortgage":241},{"zip_code":95562,"Median":239000,"lat":40.45808,"lng":-124.1072,"mortgage":467},{"zip_code":95563,"Median":398300,"lat":40.84248,"lng":-123.51225,"mortgage":41},{"zip_code":95564,"Median":333300,"lat":40.79023,"lng":-124.20312,"mortgage":30},{"zip_code":95565,"Median":284600,"lat":40.45723,"lng":-124.01099,"mortgage":78},{"zip_code":95567,"Median":254000,"lat":41.9498,"lng":-124.1118,"mortgage":337},{"zip_code":95568,"Median":326200,"lat":41.48454,"lng":-123.48543,"mortgage":5},{"zip_code":95569,"Median":401000,"lat":40.36078,"lng":-123.85818,"mortgage":70},{"zip_code":95570,"Median":446600,"lat":41.11375,"lng":-124.08037,"mortgage":356},{"zip_code":95573,"Median":314200,"lat":40.89567,"lng":-123.65873,"mortgage":213},{"zip_code":95585,"Median":356700,"lat":39.85872,"lng":-123.66619,"mortgage":38},{"zip_code":95589,"Median":405300,"lat":40.07927,"lng":-123.98596,"mortgage":222},{"zip_code":95595,"Median":727300,"lat":40.11074,"lng":-123.26642,"mortgage":2},{"zip_code":95601,"Median":363500,"lat":38.42713,"lng":-120.82997,"mortgage":77},{"zip_code":95602,"Median":511000,"lat":38.99039,"lng":-121.10991,"mortgage":3814},{"zip_code":95603,"Median":474900,"lat":38.91167,"lng":-121.08559,"mortgage":4852},{"zip_code":95605,"Median":313500,"lat":38.59289,"lng":-121.53929,"mortgage":1601},{"zip_code":95606,"Median":893300,"lat":38.75604,"lng":-122.19387,"mortgage":28},{"zip_code":95607,"Median":375600,"lat":38.7899,"lng":-122.12585,"mortgage":39},{"zip_code":95608,"Median":448700,"lat":38.62611,"lng":-121.32886,"mortgage":8959},{"zip_code":95610,"Median":375700,"lat":38.69494,"lng":-121.27219,"mortgage":6250},{"zip_code":95612,"Median":853100,"lat":38.38644,"lng":-121.58118,"mortgage":174},{"zip_code":95614,"Median":430400,"lat":38.88649,"lng":-120.98896,"mortgage":1159},{"zip_code":95615,"Median":602300,"lat":38.31113,"lng":-121.54595,"mortgage":131},{"zip_code":95616,"Median":730800,"lat":38.55819,"lng":-121.80044,"mortgage":3874},{"zip_code":95618,"Median":697900,"lat":38.54348,"lng":-121.6917,"mortgage":3671},{"zip_code":95619,"Median":277300,"lat":38.68218,"lng":-120.81401,"mortgage":752},{"zip_code":95620,"Median":458600,"lat":38.40599,"lng":-121.75689,"mortgage":3219},{"zip_code":95621,"Median":327900,"lat":38.69551,"lng":-121.30862,"mortgage":7480},{"zip_code":95623,"Median":443500,"lat":38.6075,"lng":-120.84873,"mortgage":848},{"zip_code":95624,"Median":473300,"lat":38.43203,"lng":-121.30506,"mortgage":11414},{"zip_code":95626,"Median":396500,"lat":38.73378,"lng":-121.48898,"mortgage":1133},{"zip_code":95627,"Median":357900,"lat":38.72936,"lng":-122.00959,"mortgage":604},{"zip_code":95628,"Median":489000,"lat":38.65212,"lng":-121.2543,"mortgage":8482},{"zip_code":95629,"Median":375000,"lat":38.51277,"lng":-120.6875,"mortgage":158},{"zip_code":95630,"Median":598100,"lat":38.66558,"lng":-121.141,"mortgage":14374},{"zip_code":95631,"Median":409400,"lat":39.05453,"lng":-120.75365,"mortgage":1535},{"zip_code":95632,"Median":403000,"lat":38.27705,"lng":-121.26128,"mortgage":5381},{"zip_code":95633,"Median":341700,"lat":38.84919,"lng":-120.82328,"mortgage":526},{"zip_code":95634,"Median":323700,"lat":38.9123,"lng":-120.69443,"mortgage":846},{"zip_code":95635,"Median":356200,"lat":38.91111,"lng":-120.90043,"mortgage":233},{"zip_code":95636,"Median":281900,"lat":38.6274,"lng":-120.51852,"mortgage":390},{"zip_code":95637,"Median":611100,"lat":38.85283,"lng":-122.2729,"mortgage":16},{"zip_code":95638,"Median":585700,"lat":38.33969,"lng":-121.11481,"mortgage":677},{"zip_code":95640,"Median":345100,"lat":38.33922,"lng":-120.94024,"mortgage":2143},{"zip_code":95641,"Median":259800,"lat":38.15046,"lng":-121.60271,"mortgage":226},{"zip_code":95642,"Median":348900,"lat":38.3434,"lng":-120.76398,"mortgage":1134},{"zip_code":95645,"Median":343700,"lat":38.89025,"lng":-121.79992,"mortgage":198},{"zip_code":95646,"Median":393200,"lat":38.63828,"lng":-120.01813,"mortgage":52},{"zip_code":95648,"Median":514000,"lat":38.92643,"lng":-121.31101,"mortgage":11277},{"zip_code":95650,"Median":682700,"lat":38.81339,"lng":-121.16831,"mortgage":3238},{"zip_code":95651,"Median":525400,"lat":38.82088,"lng":-120.93515,"mortgage":63},{"zip_code":95653,"Median":202000,"lat":38.69151,"lng":-121.97723,"mortgage":32},{"zip_code":95655,"Median":433100,"lat":38.54976,"lng":-121.27898,"mortgage":1034},{"zip_code":95658,"Median":702600,"lat":38.87938,"lng":-121.15173,"mortgage":1336},{"zip_code":95659,"Median":435700,"lat":38.84594,"lng":-121.57679,"mortgage":92},{"zip_code":95660,"Median":256000,"lat":38.67883,"lng":-121.3805,"mortgage":4531},{"zip_code":95661,"Median":550300,"lat":38.74129,"lng":-121.24925,"mortgage":5529},{"zip_code":95662,"Median":408300,"lat":38.68917,"lng":-121.21988,"mortgage":6474},{"zip_code":95663,"Median":713900,"lat":38.85739,"lng":-121.18251,"mortgage":786},{"zip_code":95664,"Median":420700,"lat":38.79755,"lng":-121.05136,"mortgage":167},{"zip_code":95665,"Median":315400,"lat":38.39587,"lng":-120.65238,"mortgage":1000},{"zip_code":95666,"Median":288400,"lat":38.54113,"lng":-120.33076,"mortgage":1246},{"zip_code":95667,"Median":434200,"lat":38.73407,"lng":-120.79216,"mortgage":7461},{"zip_code":95668,"Median":480000,"lat":38.82708,"lng":-121.49378,"mortgage":67},{"zip_code":95669,"Median":459000,"lat":38.49522,"lng":-120.89157,"mortgage":500},{"zip_code":95670,"Median":375500,"lat":38.60461,"lng":-121.27963,"mortgage":8443},{"zip_code":95672,"Median":573400,"lat":38.72664,"lng":-120.99638,"mortgage":1410},{"zip_code":95673,"Median":340100,"lat":38.69029,"lng":-121.46603,"mortgage":2531},{"zip_code":95674,"Median":456300,"lat":38.95396,"lng":-121.48187,"mortgage":155},{"zip_code":95677,"Median":506800,"lat":38.79298,"lng":-121.23133,"mortgage":5251},{"zip_code":95678,"Median":426500,"lat":38.76536,"lng":-121.28847,"mortgage":7319},{"zip_code":95681,"Median":312700,"lat":38.99809,"lng":-121.35422,"mortgage":102},{"zip_code":95682,"Median":544400,"lat":38.60537,"lng":-120.96175,"mortgage":6251},{"zip_code":95683,"Median":550800,"lat":38.51018,"lng":-121.09894,"mortgage":1733},{"zip_code":95684,"Median":460700,"lat":38.59098,"lng":-120.55066,"mortgage":729},{"zip_code":95685,"Median":447400,"lat":38.42716,"lng":-120.76698,"mortgage":921},{"zip_code":95686,"Median":311000,"lat":38.19039,"lng":-121.48543,"mortgage":98},{"zip_code":95687,"Median":459300,"lat":38.3344,"lng":-121.91765,"mortgage":10678},{"zip_code":95688,"Median":563300,"lat":38.41901,"lng":-122.02571,"mortgage":7017},{"zip_code":95689,"Median":404400,"lat":38.47088,"lng":-120.61566,"mortgage":347},{"zip_code":95690,"Median":601900,"lat":38.23429,"lng":-121.58672,"mortgage":316},{"zip_code":95691,"Median":412100,"lat":38.62394,"lng":-121.58272,"mortgage":6572},{"zip_code":95692,"Median":310900,"lat":39.04699,"lng":-121.40471,"mortgage":897},{"zip_code":95693,"Median":657600,"lat":38.39851,"lng":-121.21956,"mortgage":1447},{"zip_code":95694,"Median":474000,"lat":38.56163,"lng":-122.00609,"mortgage":1360},{"zip_code":95695,"Median":402800,"lat":38.68847,"lng":-121.85666,"mortgage":4963},{"zip_code":95697,"Median":170300,"lat":38.73284,"lng":-121.80701,"mortgage":0},{"zip_code":95698,"Median":654100,"lat":38.8187,"lng":-121.91012,"mortgage":14},{"zip_code":95701,"Median":460400,"lat":39.22633,"lng":-120.76741,"mortgage":242},{"zip_code":95703,"Median":534900,"lat":38.99156,"lng":-120.9864,"mortgage":556},{"zip_code":95709,"Median":465300,"lat":38.74886,"lng":-120.68134,"mortgage":1032},{"zip_code":95713,"Median":422400,"lat":39.08477,"lng":-120.92788,"mortgage":2168},{"zip_code":95714,"Median":343300,"lat":39.2013,"lng":-120.83677,"mortgage":65},{"zip_code":95715,"Median":337500,"lat":39.27495,"lng":-120.64388,"mortgage":17},{"zip_code":95717,"Median":300000,"lat":39.14258,"lng":-120.84268,"mortgage":27},{"zip_code":95720,"Median":365000,"lat":38.84536,"lng":-120.26021,"mortgage":26},{"zip_code":95722,"Median":547200,"lat":39.00467,"lng":-121.02891,"mortgage":1118},{"zip_code":95726,"Median":341300,"lat":38.75418,"lng":-120.41989,"mortgage":1812},{"zip_code":95728,"Median":704900,"lat":39.29673,"lng":-120.40358,"mortgage":83},{"zip_code":95742,"Median":472200,"lat":38.5735,"lng":-121.19854,"mortgage":2746},{"zip_code":95746,"Median":852900,"lat":38.75009,"lng":-121.16712,"mortgage":4757},{"zip_code":95747,"Median":537300,"lat":38.77963,"lng":-121.36798,"mortgage":15733},{"zip_code":95757,"Median":507100,"lat":38.33886,"lng":-121.43643,"mortgage":8501},{"zip_code":95758,"Median":434500,"lat":38.42932,"lng":-121.44603,"mortgage":11873},{"zip_code":95762,"Median":699100,"lat":38.67694,"lng":-121.05755,"mortgage":9882},{"zip_code":95765,"Median":578900,"lat":38.81982,"lng":-121.27772,"mortgage":7179},{"zip_code":95776,"Median":429900,"lat":38.68889,"lng":-121.70776,"mortgage":3637},{"zip_code":95811,"Median":510900,"lat":38.58761,"lng":-121.49077,"mortgage":291},{"zip_code":95814,"Median":544600,"lat":38.58064,"lng":-121.49488,"mortgage":488},{"zip_code":95815,"Median":247400,"lat":38.60544,"lng":-121.44497,"mortgage":2761},{"zip_code":95816,"Median":631100,"lat":38.57555,"lng":-121.46543,"mortgage":2014},{"zip_code":95817,"Median":374200,"lat":38.55057,"lng":-121.45713,"mortgage":1639},{"zip_code":95818,"Median":660600,"lat":38.55579,"lng":-121.49669,"mortgage":3837},{"zip_code":95819,"Median":637200,"lat":38.56816,"lng":-121.43772,"mortgage":3967},{"zip_code":95820,"Median":317700,"lat":38.53491,"lng":-121.4442,"mortgage":5186},{"zip_code":95821,"Median":374500,"lat":38.62541,"lng":-121.38479,"mortgage":4784},{"zip_code":95822,"Median":355400,"lat":38.51273,"lng":-121.49556,"mortgage":6626},{"zip_code":95823,"Median":285600,"lat":38.47473,"lng":-121.44266,"mortgage":7928},{"zip_code":95824,"Median":243800,"lat":38.51746,"lng":-121.44147,"mortgage":2126},{"zip_code":95825,"Median":331300,"lat":38.5901,"lng":-121.40644,"mortgage":2305},{"zip_code":95826,"Median":349300,"lat":38.54554,"lng":-121.37885,"mortgage":5811},{"zip_code":95827,"Median":328800,"lat":38.55151,"lng":-121.3253,"mortgage":2981},{"zip_code":95828,"Median":309800,"lat":38.48943,"lng":-121.39598,"mortgage":7451},{"zip_code":95829,"Median":429800,"lat":38.48759,"lng":-121.33326,"mortgage":5340},{"zip_code":95830,"Median":821900,"lat":38.49415,"lng":-121.27229,"mortgage":107},{"zip_code":95831,"Median":485300,"lat":38.49599,"lng":-121.52948,"mortgage":6217},{"zip_code":95832,"Median":319400,"lat":38.43979,"lng":-121.49888,"mortgage":1235},{"zip_code":95833,"Median":349900,"lat":38.61529,"lng":-121.51558,"mortgage":5583},{"zip_code":95834,"Median":415800,"lat":38.64207,"lng":-121.51967,"mortgage":4756},{"zip_code":95835,"Median":452000,"lat":38.67088,"lng":-121.52464,"mortgage":8017},{"zip_code":95837,"Median":1045500,"lat":38.68925,"lng":-121.59537,"mortgage":36},{"zip_code":95838,"Median":276000,"lat":38.64708,"lng":-121.44312,"mortgage":4876},{"zip_code":95841,"Median":308800,"lat":38.66031,"lng":-121.34812,"mortgage":2234},{"zip_code":95842,"Median":289300,"lat":38.687,"lng":-121.34889,"mortgage":3825},{"zip_code":95843,"Median":361900,"lat":38.71532,"lng":-121.36366,"mortgage":8087},{"zip_code":95864,"Median":643200,"lat":38.58512,"lng":-121.37655,"mortgage":4852},{"zip_code":95901,"Median":269300,"lat":39.2225,"lng":-121.48855,"mortgage":4727},{"zip_code":95910,"Median":120800,"lat":39.46742,"lng":-120.83158,"mortgage":65},{"zip_code":95912,"Median":351000,"lat":39.0016,"lng":-122.07462,"mortgage":567},{"zip_code":95913,"Median":227500,"lat":39.62899,"lng":-122.19215,"mortgage":22},{"zip_code":95914,"Median":306900,"lat":39.40756,"lng":-121.37878,"mortgage":69},{"zip_code":95916,"Median":204800,"lat":39.65945,"lng":-121.37375,"mortgage":98},{"zip_code":95917,"Median":275000,"lat":39.42392,"lng":-121.77178,"mortgage":558},{"zip_code":95918,"Median":532700,"lat":39.301,"lng":-121.34547,"mortgage":494},{"zip_code":95919,"Median":273400,"lat":39.43445,"lng":-121.26554,"mortgage":274},{"zip_code":95920,"Median":269400,"lat":39.46071,"lng":-121.93702,"mortgage":29},{"zip_code":95922,"Median":266200,"lat":39.47033,"lng":-121.07736,"mortgage":75},{"zip_code":95923,"Median":736100,"lat":40.18385,"lng":-121.13672,"mortgage":4},{"zip_code":95926,"Median":370500,"lat":39.74573,"lng":-121.84396,"mortgage":4701},{"zip_code":95928,"Median":388800,"lat":39.68317,"lng":-121.83528,"mortgage":4409},{"zip_code":95930,"Median":282900,"lat":39.54679,"lng":-121.1606,"mortgage":88},{"zip_code":95932,"Median":285200,"lat":39.26839,"lng":-122.00426,"mortgage":932},{"zip_code":95936,"Median":1024200,"lat":39.56336,"lng":-120.79279,"mortgage":12},{"zip_code":95938,"Median":477700,"lat":39.60504,"lng":-121.79708,"mortgage":632},{"zip_code":95939,"Median":138100,"lat":39.56755,"lng":-122.60224,"mortgage":21},{"zip_code":95941,"Median":269500,"lat":39.5588,"lng":-121.24157,"mortgage":21},{"zip_code":95942,"Median":392300,"lat":39.98954,"lng":-121.58872,"mortgage":510},{"zip_code":95943,"Median":570300,"lat":39.57692,"lng":-122.0367,"mortgage":44},{"zip_code":95945,"Median":391400,"lat":39.19426,"lng":-120.98199,"mortgage":3870},{"zip_code":95946,"Median":443600,"lat":39.21052,"lng":-121.20467,"mortgage":1772},{"zip_code":95947,"Median":240100,"lat":40.15942,"lng":-120.84409,"mortgage":295},{"zip_code":95948,"Median":260600,"lat":39.34289,"lng":-121.75818,"mortgage":1410},{"zip_code":95949,"Median":448500,"lat":39.102,"lng":-121.13343,"mortgage":4690},{"zip_code":95951,"Median":240300,"lat":39.71473,"lng":-122.00197,"mortgage":264},{"zip_code":95953,"Median":276300,"lat":39.25018,"lng":-121.77309,"mortgage":1471},{"zip_code":95954,"Median":194500,"lat":39.94916,"lng":-121.54088,"mortgage":2097},{"zip_code":95955,"Median":283100,"lat":39.29657,"lng":-122.20454,"mortgage":158},{"zip_code":95956,"Median":261500,"lat":39.8751,"lng":-121.12209,"mortgage":101},{"zip_code":95957,"Median":278300,"lat":39.05366,"lng":-121.82379,"mortgage":107},{"zip_code":95959,"Median":519400,"lat":39.34509,"lng":-120.86797,"mortgage":3226},{"zip_code":95960,"Median":348300,"lat":39.39121,"lng":-121.0583,"mortgage":63},{"zip_code":95961,"Median":292400,"lat":39.03343,"lng":-121.55754,"mortgage":4600},{"zip_code":95962,"Median":297500,"lat":39.32669,"lng":-121.26876,"mortgage":150},{"zip_code":95963,"Median":278200,"lat":39.73682,"lng":-122.30329,"mortgage":2122},{"zip_code":95965,"Median":216400,"lat":39.59169,"lng":-121.59034,"mortgage":2303},{"zip_code":95966,"Median":244400,"lat":39.47332,"lng":-121.43284,"mortgage":4986},{"zip_code":95968,"Median":156800,"lat":39.43514,"lng":-121.55179,"mortgage":61},{"zip_code":95969,"Median":300000,"lat":39.72178,"lng":-121.63388,"mortgage":1543},{"zip_code":95970,"Median":450000,"lat":39.41159,"lng":-122.05176,"mortgage":28},{"zip_code":95971,"Median":266100,"lat":39.92895,"lng":-120.91608,"mortgage":644},{"zip_code":95973,"Median":402600,"lat":39.88099,"lng":-121.8516,"mortgage":5905},{"zip_code":95975,"Median":478700,"lat":39.22436,"lng":-121.15367,"mortgage":471},{"zip_code":95977,"Median":377100,"lat":39.17967,"lng":-121.29007,"mortgage":347},{"zip_code":95979,"Median":250000,"lat":39.29771,"lng":-122.47913,"mortgage":39},{"zip_code":95982,"Median":292700,"lat":39.18051,"lng":-121.80746,"mortgage":581},{"zip_code":95987,"Median":310300,"lat":39.10299,"lng":-122.2726,"mortgage":795},{"zip_code":95988,"Median":244100,"lat":39.49825,"lng":-122.28698,"mortgage":947},{"zip_code":95991,"Median":297900,"lat":39.02205,"lng":-121.61317,"mortgage":4877},{"zip_code":95993,"Median":353700,"lat":39.08171,"lng":-121.68798,"mortgage":5367},{"zip_code":96001,"Median":319700,"lat":40.57731,"lng":-122.45443,"mortgage":4965},{"zip_code":96002,"Median":280900,"lat":40.5299,"lng":-122.31679,"mortgage":4821},{"zip_code":96003,"Median":299600,"lat":40.66664,"lng":-122.31564,"mortgage":6511},{"zip_code":96006,"Median":162000,"lat":41.15575,"lng":-120.83952,"mortgage":42},{"zip_code":96007,"Median":235900,"lat":40.45507,"lng":-122.30468,"mortgage":3885},{"zip_code":96008,"Median":197700,"lat":40.73559,"lng":-122.11091,"mortgage":179},{"zip_code":96009,"Median":277800,"lat":41.06183,"lng":-121.04434,"mortgage":24},{"zip_code":96011,"Median":115200,"lat":41.05762,"lng":-121.89157,"mortgage":11},{"zip_code":96013,"Median":169500,"lat":40.97495,"lng":-121.68316,"mortgage":552},{"zip_code":96015,"Median":218800,"lat":41.49672,"lng":-120.87162,"mortgage":15},{"zip_code":96016,"Median":166800,"lat":40.90675,"lng":-121.52032,"mortgage":48},{"zip_code":96017,"Median":258300,"lat":41.10776,"lng":-122.30751,"mortgage":22},{"zip_code":96019,"Median":219700,"lat":40.68729,"lng":-122.39927,"mortgage":1803},{"zip_code":96020,"Median":229200,"lat":40.30089,"lng":-121.26286,"mortgage":587},{"zip_code":96021,"Median":212900,"lat":39.91871,"lng":-122.26813,"mortgage":1793},{"zip_code":96022,"Median":263300,"lat":40.34232,"lng":-122.44814,"mortgage":2882},{"zip_code":96023,"Median":120300,"lat":41.92108,"lng":-121.97592,"mortgage":139},{"zip_code":96024,"Median":278800,"lat":40.58767,"lng":-122.90143,"mortgage":64},{"zip_code":96025,"Median":232200,"lat":41.20409,"lng":-122.32523,"mortgage":343},{"zip_code":96027,"Median":240800,"lat":41.36558,"lng":-123.07799,"mortgage":316},{"zip_code":96028,"Median":286100,"lat":41.00761,"lng":-121.45731,"mortgage":302},{"zip_code":96029,"Median":311500,"lat":39.94003,"lng":-122.48743,"mortgage":41},{"zip_code":96031,"Median":163600,"lat":41.17262,"lng":-123.18029,"mortgage":1},{"zip_code":96032,"Median":253400,"lat":41.58503,"lng":-122.98291,"mortgage":300},{"zip_code":96033,"Median":130000,"lat":40.75076,"lng":-122.60004,"mortgage":48},{"zip_code":96034,"Median":305300,"lat":41.44177,"lng":-122.60772,"mortgage":41},{"zip_code":96035,"Median":223500,"lat":40.04168,"lng":-122.18254,"mortgage":633},{"zip_code":96038,"Median":213900,"lat":41.60827,"lng":-122.54576,"mortgage":37},{"zip_code":96039,"Median":143800,"lat":41.66376,"lng":-123.37711,"mortgage":58},{"zip_code":96041,"Median":310100,"lat":40.52059,"lng":-123.19991,"mortgage":78},{"zip_code":96044,"Median":177100,"lat":41.95384,"lng":-122.64853,"mortgage":156},{"zip_code":96047,"Median":367600,"lat":40.47695,"lng":-122.69889,"mortgage":157},{"zip_code":96048,"Median":330600,"lat":40.82613,"lng":-123.05594,"mortgage":205},{"zip_code":96050,"Median":201200,"lat":41.85389,"lng":-122.95689,"mortgage":31},{"zip_code":96051,"Median":269100,"lat":40.90112,"lng":-122.35664,"mortgage":273},{"zip_code":96052,"Median":282500,"lat":40.68515,"lng":-122.80342,"mortgage":270},{"zip_code":96054,"Median":124600,"lat":41.26665,"lng":-121.10633,"mortgage":48},{"zip_code":96055,"Median":229300,"lat":40.10249,"lng":-122.03213,"mortgage":617},{"zip_code":96056,"Median":266500,"lat":41.07178,"lng":-121.32607,"mortgage":317},{"zip_code":96057,"Median":237500,"lat":41.26144,"lng":-122.0118,"mortgage":158},{"zip_code":96058,"Median":226600,"lat":41.74536,"lng":-121.9337,"mortgage":23},{"zip_code":96059,"Median":358000,"lat":40.42947,"lng":-121.83465,"mortgage":22},{"zip_code":96062,"Median":325000,"lat":40.56373,"lng":-122.06646,"mortgage":196},{"zip_code":96063,"Median":170700,"lat":40.35708,"lng":-121.60236,"mortgage":39},{"zip_code":96064,"Median":199100,"lat":41.76371,"lng":-122.36433,"mortgage":682},{"zip_code":96065,"Median":267700,"lat":40.88056,"lng":-121.95433,"mortgage":54},{"zip_code":96067,"Median":320300,"lat":41.31664,"lng":-122.31736,"mortgage":1099},{"zip_code":96069,"Median":327000,"lat":40.68226,"lng":-122.02341,"mortgage":225},{"zip_code":96073,"Median":451900,"lat":40.59047,"lng":-122.20537,"mortgage":1176},{"zip_code":96080,"Median":250400,"lat":40.16386,"lng":-122.39171,"mortgage":4763},{"zip_code":96084,"Median":241700,"lat":40.79395,"lng":-121.91519,"mortgage":71},{"zip_code":96085,"Median":159400,"lat":41.73245,"lng":-123.05145,"mortgage":4},{"zip_code":96086,"Median":225000,"lat":41.87407,"lng":-123.23012,"mortgage":18},{"zip_code":96087,"Median":334500,"lat":40.63296,"lng":-122.58067,"mortgage":169},{"zip_code":96088,"Median":257200,"lat":40.50983,"lng":-121.88848,"mortgage":1213},{"zip_code":96090,"Median":197700,"lat":40.00681,"lng":-122.12142,"mortgage":71},{"zip_code":96091,"Median":321300,"lat":41.04567,"lng":-122.78053,"mortgage":140},{"zip_code":96092,"Median":275000,"lat":39.97344,"lng":-121.97342,"mortgage":34},{"zip_code":96093,"Median":298300,"lat":40.77237,"lng":-122.94329,"mortgage":603},{"zip_code":96094,"Median":248600,"lat":41.51214,"lng":-122.36253,"mortgage":1116},{"zip_code":96096,"Median":332200,"lat":40.63738,"lng":-121.87552,"mortgage":168},{"zip_code":96097,"Median":190300,"lat":41.76234,"lng":-122.65921,"mortgage":1481},{"zip_code":96101,"Median":145900,"lat":41.45803,"lng":-120.5043,"mortgage":686},{"zip_code":96103,"Median":352200,"lat":39.78446,"lng":-120.66969,"mortgage":268},{"zip_code":96104,"Median":174400,"lat":41.48248,"lng":-120.12725,"mortgage":65},{"zip_code":96106,"Median":470000,"lat":39.73552,"lng":-120.54388,"mortgage":31},{"zip_code":96107,"Median":245800,"lat":38.45215,"lng":-119.51421,"mortgage":98},{"zip_code":96109,"Median":186400,"lat":39.99747,"lng":-120.09521,"mortgage":209},{"zip_code":96112,"Median":197900,"lat":41.8372,"lng":-120.09403,"mortgage":7},{"zip_code":96114,"Median":295100,"lat":40.2945,"lng":-120.49359,"mortgage":524},{"zip_code":96118,"Median":215000,"lat":39.64823,"lng":-120.25392,"mortgage":227},{"zip_code":96120,"Median":375300,"lat":38.745,"lng":-119.82485,"mortgage":120},{"zip_code":96122,"Median":198000,"lat":39.82082,"lng":-120.47652,"mortgage":638},{"zip_code":96123,"Median":231300,"lat":40.80392,"lng":-120.30799,"mortgage":0},{"zip_code":96125,"Median":268200,"lat":39.61526,"lng":-120.60493,"mortgage":45},{"zip_code":96128,"Median":353900,"lat":40.34948,"lng":-120.40198,"mortgage":169},{"zip_code":96129,"Median":352000,"lat":39.81848,"lng":-120.35346,"mortgage":57},{"zip_code":96130,"Median":218100,"lat":40.54992,"lng":-120.63064,"mortgage":2063},{"zip_code":96133,"Median":219600,"lat":38.63181,"lng":-119.50423,"mortgage":91},{"zip_code":96134,"Median":130100,"lat":41.8444,"lng":-121.41231,"mortgage":165},{"zip_code":96137,"Median":236300,"lat":40.38554,"lng":-121.12478,"mortgage":612},{"zip_code":96140,"Median":721200,"lat":39.23244,"lng":-120.10364,"mortgage":272},{"zip_code":96141,"Median":817300,"lat":39.10297,"lng":-120.19872,"mortgage":168},{"zip_code":96142,"Median":577700,"lat":39.0138,"lng":-120.09592,"mortgage":111},{"zip_code":96143,"Median":542100,"lat":39.26174,"lng":-120.02817,"mortgage":562},{"zip_code":96145,"Median":785700,"lat":39.18203,"lng":-120.15143,"mortgage":598},{"zip_code":96146,"Median":1203900,"lat":39.22556,"lng":-120.23681,"mortgage":128},{"zip_code":96148,"Median":681100,"lat":39.24978,"lng":-120.05767,"mortgage":94},{"zip_code":96150,"Median":488200,"lat":38.88971,"lng":-120.04409,"mortgage":4669},{"zip_code":96161,"Median":653600,"lat":39.34848,"lng":-120.22603,"mortgage":3971},{"zip_code":97635,"Median":126800,"lat":41.93173,"lng":-120.29974,"mortgage":12}]